{"version": 0.6, "generator": "Overpass API 0.7.61.5 4133829e", "osm3s": {"timestamp_osm_base": "2024-03-14T09:05:00Z", "copyright": "The data included in this document is from www.openstreetmap.org. The data is made available under ODbL."}, "elements": [{"type": "node", "id": 96405646, "lat": 48.9785352, "lon": 13.3889715, "tags": {"ele": "1453", "name": "Gro\u00dfer Rachel", "name:cs": "Velk\u00fd Roklan", "natural": "peak", "source": "wikipedia.de", "summit:cross": "yes", "wikidata": "Q884705", "wikipedia": "de:Gro\u00dfer Rachel"}}, {"type": "node", "id": 173866922, "lat": 49.0885068, "lon": 13.2732424, "tags": {"ele": "1190", "name": "Kleiner Falkenstein", "natural": "peak", "wikidata": "Q1376174", "wikipedia": "de:Kleiner Falkenstein"}}, {"type": "node", "id": 283596131, "lat": 49.0642171, "lon": 13.3947854, "tags": {"ele": "1314.7", "name": "Poledn\u00edk", "name:cs": "Poledn\u00edk", "name:de": "Mittagsberg", "natural": "peak", "wikidata": "Q932032", "wikipedia": "cs:Poledn\u00edk (\u0160umava)"}}, {"type": "node", "id": 283607334, "lat": 48.9792832, "lon": 13.5509669, "tags": {"ele": "1316", "name": "\u010cern\u00e1 Hora", "name:de": "Schwarzberg", "natural": "peak", "source:ele": "cs.wikipedia.org"}}, {"type": "node", "id": 288522356, "lat": 49.0536229, "lon": 13.4431195, "tags": {"ele": "1227.6", "name": "Obl\u00edk", "name:de": "Steiningberg", "natural": "peak"}}, {"type": "node", "id": 357913555, "lat": 48.9758333, "lon": 13.5799665, "tags": {"ele": "1307.6", "name": "Str\u00e1\u017e", "name:cs": "Str\u00e1\u017e", "name:de": "Postberg", "natural": "peak", "wikimedia_commons": "File:2014-03-22 12.30.17 Str\u00e1\u017e.jpg"}}, {"type": "node", "id": 410947529, "lat": 48.9391964, "lon": 13.5067775, "tags": {"ele": "1373", "name": "Lusen", "name:cs": "Luzn\u00fd", "name:de": "Lusen", "natural": "peak", "summit:cross": "yes", "tourism": "viewpoint", "wheelchair": "no", "wikidata": "Q896982", "wikipedia": "de:Lusen"}}, {"type": "node", "id": 435237776, "lat": 48.9504287, "lon": 13.2790963, "tags": {"ele": "959", "name": "Wagensonnriegel", "natural": "peak", "summit:cross": "yes", "wikidata": "Q2539113", "wikipedia": "de:Wagensonnriegel"}}, {"type": "node", "id": 445764708, "lat": 48.92468, "lon": 13.4845986, "tags": {"ele": "1151", "name": "Waldh\u00e4userriegel", "natural": "peak", "wikidata": "Q2541650", "wikipedia": "de:Waldh\u00e4userriegel"}}, {"type": "node", "id": 445970161, "lat": 48.9510092, "lon": 13.4797727, "tags": {"ele": "1233", "name": "Kleiner Spitzberg", "name:cs": "Hrani\u010dn\u00ed hora", "name:de": "Kleiner Spitzberg", "natural": "peak"}}, {"type": "node", "id": 469869745, "lat": 48.9530022, "lon": 13.522683, "tags": {"ele": "1342", "name": "Steinfleckberg", "natural": "peak", "wikidata": "Q832784", "wikipedia": "de:Steinfleckberg"}}, {"type": "node", "id": 538378363, "lat": 48.9342375, "lon": 13.2792772, "tags": {"ele": "1043", "name": "Eschenberg", "natural": "peak", "wikidata": "Q1366997", "wikipedia": "de:Eschenberg (Kirchdorf im Wald)"}}, {"type": "node", "id": 564965776, "lat": 48.9146856, "lon": 13.3040868, "tags": {"ele": "878", "name": "Hessenstein", "natural": "peak", "wikidata": "Q946935", "wikipedia": "de:Hessenstein"}}, {"type": "node", "id": 568291918, "lat": 49.1025619, "lon": 13.3483768, "tags": {"ele": "1300", "natural": "peak", "source": "\u010c\u00daZK"}}, {"type": "node", "id": 568291921, "lat": 49.1157564, "lon": 13.3413822, "tags": {"ele": "1205.8", "name": "D\u0159ev\u011bn\u00e1 h\u016fl", "name:de": "Hohenstock", "natural": "peak", "source": "cuzk:km", "source:ele": "tisicovky.cz"}}, {"type": "node", "id": 568291925, "lat": 49.1331219, "lon": 13.3005748, "tags": {"ele": "1228", "natural": "peak", "source": "\u010c\u00daZK"}}, {"type": "node", "id": 568307338, "lat": 49.1436773, "lon": 13.2828283, "tags": {"ele": "1195", "name": "Skl\u00e1\u0159sk\u00fd vrch", "name:de": "Pamferberg", "natural": "peak"}}, {"type": "node", "id": 568307341, "lat": 49.0791614, "lon": 13.3887957, "tags": {"ele": "1238", "name": "Skalka", "natural": "peak", "source": "cuzk:km", "source:ele": "tisicovky.cz"}}, {"type": "node", "id": 576571442, "lat": 48.9639997, "lon": 13.4502885, "tags": {"ele": "1376", "name": "Plattenhausenriegel", "name:cs": "Blatn\u00fd vrch", "name:de": "Plattenhausenriegel", "natural": "peak", "source:ele": "tisicovky.cz", "source:name": "tisicovky.cz", "wikidata": "Q833090", "wikipedia": "de:Plattenhausenriegel"}}, {"type": "node", "id": 576633912, "lat": 49.0023536, "lon": 13.534412, "tags": {"ele": "1244", "name": "\u010cert\u016fv vrch", "name:de": "Steink\u00f6pfel (Teufelsh\u00fcgel)", "natural": "peak", "source:ele": "tisicovky.cz", "source:name": "tisicovky.cz"}}, {"type": "node", "id": 576633917, "lat": 49.0956789, "lon": 13.3674274, "tags": {"ele": "1017", "name": "Doln\u00ed \u017dd\u00e1nidla", "name:cs": "Doln\u00ed \u017dd\u00e1nidla", "name:de": "Untersteindlberg", "natural": "peak", "source:ele": "tisicovky.cz", "source:name": "tisicovky.cz"}}, {"type": "node", "id": 576717518, "lat": 48.9939956, "lon": 13.4270897, "tags": {"ele": "1224", "name": "Medv\u011bd\u00ed hora", "natural": "peak", "source": "\u010c\u00daZK"}}, {"type": "node", "id": 576717519, "lat": 49.0135135, "lon": 13.4789979, "tags": {"ele": "1157", "name": "Modravsk\u00e1 hora", "name:de": "Blohausberg", "natural": "peak", "source": "GPS"}}, {"type": "node", "id": 576722557, "lat": 49.1016667, "lon": 13.3313889, "tags": {"ele": "1227", "name": "Nad plesem", "name:cs": "Nad plesem", "natural": "peak", "source": "tisicovky.cz"}}, {"type": "node", "id": 576722561, "lat": 49.0263889, "lon": 13.4041667, "tags": {"ele": "1163", "name": "Nad Latschensee", "natural": "peak", "source": "tisicovky.cz"}}, {"type": "node", "id": 576722562, "lat": 49.0144444, "lon": 13.4416667, "tags": {"ele": "1133", "natural": "peak", "source": "\u010c\u00daZK"}}, {"type": "node", "id": 576733425, "lat": 49.0213889, "lon": 13.4552778, "tags": {"ele": "1062", "name": "P\u0159edn\u00ed Mlyn\u00e1\u0159sk\u00e1 sla\u0165", "natural": "peak", "source": "tisicovky.cz"}}, {"type": "node", "id": 576733426, "lat": 48.9305556, "lon": 13.6338889, "tags": {"ele": "1068", "name": "Pomezn\u00ed vrch", "name:cs": "Pomezn\u00ed vrch", "name:de": "Strickberg", "natural": "peak", "source": "tisicovky.cz"}}, {"type": "node", "id": 577323243, "lat": 48.9791667, "lon": 13.4644444, "tags": {"ele": "1302", "name": "Studen\u00e1 hora", "name:de": "Kaltstaude", "natural": "peak", "source": "\u010c\u00daZK"}}, {"type": "node", "id": 577323244, "lat": 48.9608914, "lon": 13.4644308, "tags": {"ele": "1351", "name": "\u0160pi\u010dn\u00edk", "name:cs": "\u0160pi\u010dn\u00edk", "name:de": "Gro\u00dfer Spitzberg", "natural": "peak", "source": "tisicovky.cz"}}, {"type": "node", "id": 577336411, "lat": 49.1565068, "lon": 13.2776647, "tags": {"ele": "1023", "name": "Tok", "name:de": "Hahnenriegel", "natural": "peak", "source": "tisicovky.cz"}}, {"type": "node", "id": 577336412, "lat": 49.1312401, "lon": 13.2604997, "tags": {"ele": "1129", "name": "Z\u00e1meck\u00fd les", "name:de": "Schlo\u00dfwald", "natural": "peak", "source": "tisicovky.cz"}}, {"type": "node", "id": 577336416, "lat": 48.9546699, "lon": 13.5064049, "tags": {"ele": "1370", "name": "Velk\u00e1 Mokr\u016fvka", "name:cs": "Velk\u00e1 Mokr\u016fvka", "name:de": "Moorberg", "natural": "peak", "source": "\u010c\u00daZK", "wikidata": "Q11878617"}}, {"type": "node", "id": 577336417, "lat": 48.9727165, "lon": 13.4258767, "tags": {"ele": "1276", "name": "V kout\u011b", "natural": "peak", "source": "tisicovky.cz"}}, {"type": "node", "id": 577336418, "lat": 48.9238194, "lon": 13.6513123, "tags": {"ele": "1064", "name": "\u017d\u010f\u00e1reck\u00e1 hora", "name:cs": "\u017d\u010f\u00e1reck\u00e1 hora", "name:de": "Parmberg", "natural": "peak", "source": "tisicovky.cz"}}, {"type": "node", "id": 841768928, "lat": 48.9318145, "lon": 13.2580614, "tags": {"ele": "951", "name": "Gsengetstein", "natural": "peak", "note": "Gipfelbuch ja", "summit:cross": "yes", "summit:register": "yes", "wikidata": "Q1552497", "wikipedia": "de:Gsengetstein"}}, {"type": "node", "id": 1243026449, "lat": 48.9351902, "lon": 13.5631521, "tags": {"natural": "peak"}}, {"type": "node", "id": 1270510248, "lat": 49.0074465, "lon": 13.4027836, "tags": {"name": "Beerenkopf", "natural": "peak"}}, {"type": "node", "id": 1278984529, "lat": 48.9150996, "lon": 13.5301565, "tags": {"ele": "1196", "name": "Hohlstein", "natural": "peak", "wikidata": "Q1624090", "wikipedia": "de:Hohlstein"}}, {"type": "node", "id": 1295132357, "lat": 49.0309187, "lon": 13.4246493, "tags": {"ele": "1111", "name": "Smrkov\u00fd vrch", "name:cs": "Smrkov\u00fd vrch", "name:de": "Sch\u00f6nfichte", "natural": "peak", "source": "\u010c\u00daZK"}}, {"type": "node", "id": 1350021382, "lat": 48.9797702, "lon": 13.4372723, "tags": {"ele": "1226", "natural": "peak", "source": "\u010c\u00daZK"}}, {"type": "node", "id": 1350021383, "lat": 48.9767339, "lon": 13.4534416, "tags": {"ele": "1276", "natural": "peak", "source": "\u010c\u00daZK"}}, {"type": "node", "id": 1350024106, "lat": 48.981338, "lon": 13.5029053, "tags": {"name": "Ztracen\u00fd vrch", "name:de": "Verlorener Berg", "natural": "peak", "source": "\u010c\u00daZK"}}, {"type": "node", "id": 1350030716, "lat": 49.0521408, "lon": 13.3372696, "tags": {"ele": "1199", "name": "Fahnenriegel", "natural": "peak"}}, {"type": "node", "id": 1350032421, "lat": 49.0673998, "lon": 13.3311385, "tags": {"ele": "1193", "name": "Scheuereckberg", "natural": "peak", "summit:cross": "yes", "wikidata": "Q2233940", "wikipedia": "de:Scheuereckberg"}}, {"type": "node", "id": 1355164630, "lat": 48.985729, "lon": 13.3869806, "tags": {"ele": "1218", "natural": "peak"}}, {"type": "node", "id": 1355321835, "lat": 48.9194173, "lon": 13.3642355, "tags": {"name": "Trossel", "natural": "peak"}}, {"type": "node", "id": 1401427466, "lat": 49.1050636, "lon": 13.3128899, "tags": {"ele": "1338", "name": "Plesn\u00e1", "name:cs": "Plesn\u00e1", "name:de": "Lackenberg", "natural": "peak", "source": "\u010c\u00daZK", "wikidata": "Q321991", "wikipedia": "de:Lackenberg (Bayerischer Wald)"}}, {"type": "node", "id": 1406990715, "lat": 49.1263722, "lon": 13.2963804, "tags": {"ele": "1293", "natural": "peak", "source": "\u010c\u00daZK"}}, {"type": "node", "id": 1406990721, "lat": 49.1169079, "lon": 13.3066933, "tags": {"ele": "1177", "name": "Vl\u010d\u00ed j\u00e1my", "name:de": "Wolfsgruben", "natural": "peak"}}, {"type": "node", "id": 1421707148, "lat": 48.9583264, "lon": 13.4619944, "tags": {"natural": "peak"}}, {"type": "node", "id": 1482153892, "lat": 49.012557, "lon": 13.3186479, "tags": {"ele": "734", "name": "Stierberg", "natural": "peak"}}, {"type": "node", "id": 1482161211, "lat": 49.0034363, "lon": 13.3044, "tags": {"ele": "664", "name": "Ochsenberg", "natural": "peak"}}, {"type": "node", "id": 1716906832, "lat": 48.9259059, "lon": 13.2778733, "tags": {"ele": "863", "name": "Habichtstein", "natural": "peak"}}, {"type": "node", "id": 2365417233, "lat": 48.9576901, "lon": 13.5417946, "tags": {"ele": "1203", "name": "Farrenberg", "natural": "peak", "wikidata": "Q31547366"}}, {"type": "node", "id": 2389007421, "lat": 49.0391581, "lon": 13.2892725, "tags": {"ele": "934", "name": "Riesberg", "natural": "peak"}}, {"type": "node", "id": 2413491281, "lat": 48.983702, "lon": 13.3791457, "tags": {"ele": "1399", "name": "Kleiner Rachel", "name:cs": "Mal\u00fd Roklan", "natural": "peak", "note": "Gipfelpunkt", "wikidata": "Q1746668"}}, {"type": "node", "id": 2486503354, "lat": 48.9879311, "lon": 13.3805457, "tags": {"ele": "1260", "fixme": "genauer Positionieren", "name": "Hochruck", "natural": "peak", "wikidata": "Q30724370"}}, {"type": "node", "id": 2491284346, "lat": 49.0702859, "lon": 13.272082, "tags": {"name": "F\u00fcrstenstand", "natural": "peak"}}, {"type": "node", "id": 2976643043, "lat": 49.0498975, "lon": 13.3563224, "tags": {"name": "Kleiner Hahnenbogen", "natural": "peak"}}, {"type": "node", "id": 2989721475, "lat": 48.9268886, "lon": 13.4751667, "tags": {"natural": "peak"}}, {"type": "node", "id": 2996235651, "lat": 49.0947511, "lon": 13.2826889, "tags": {"ele": "1269", "name": "Ruckowitzberg", "natural": "peak", "note": "Ruckwiesberg", "wikidata": "Q1417160"}}, {"type": "node", "id": 2996241293, "lat": 49.0452334, "lon": 13.3631037, "tags": {"ele": "1257", "name": "Gro\u00dfer Hahnenbogen", "natural": "peak", "wikidata": "Q1568879"}}, {"type": "node", "id": 2996241294, "lat": 49.0215876, "lon": 13.3553605, "tags": {"ele": "1039", "name": "Hirschberg", "natural": "peak", "wikidata": "Q1620374"}}, {"type": "node", "id": 2996241295, "lat": 49.0527189, "lon": 13.3453269, "tags": {"ele": "1265", "name": "Kiesruck", "natural": "peak", "note": "Der Fels hat einen Durchbruch, der Felsentor genannt wird (Durchgangsh\u00f6he)", "wikidata": "Q1741113"}}, {"type": "node", "id": 2996250696, "lat": 48.9275209, "lon": 13.5227264, "tags": {"ele": "1260", "natural": "peak"}}, {"type": "node", "id": 2996252119, "lat": 48.9654959, "lon": 13.5755324, "tags": {"ele": "1263", "name": "Siebensteinkopf", "natural": "peak", "wikidata": "Q1353058"}}, {"type": "node", "id": 3194358028, "lat": 49.0787465, "lon": 13.2876243, "tags": {"ele": "1145", "name": "Schwarzbachriegel", "natural": "peak", "note": "Geiernest"}}, {"type": "node", "id": 3242752334, "lat": 48.9686858, "lon": 13.5150775, "tags": {"ele": "1280", "name": "Markkopf", "natural": "peak"}}, {"type": "node", "id": 3242754647, "lat": 48.9730184, "lon": 13.5221733, "tags": {"ele": "1254", "name": "Mrtv\u00fd vrch", "name:cs": "Mrtv\u00fd vrch", "name:de": "Totenkopf", "natural": "peak", "source": "\u010c\u00daZK"}}, {"type": "node", "id": 3258612962, "lat": 48.9924344, "lon": 13.2624516, "tags": {"ele": "755", "name": "Oberer K\u00fchberg", "natural": "peak"}}, {"type": "node", "id": 3258612963, "lat": 48.9866662, "lon": 13.2593005, "tags": {"ele": "827", "name": "Stierberg", "natural": "peak"}}, {"type": "node", "id": 3347895029, "lat": 48.9930278, "lon": 13.3817026, "tags": {"ele": "1206", "natural": "peak", "note": "Felsformation"}}, {"type": "node", "id": 3420287347, "lat": 48.9291005, "lon": 13.6466474, "tags": {"ele": "1060", "name": "Stod\u016fleck\u00e1 hora", "name:de": "Scheurecker Berg", "natural": "peak"}}, {"type": "node", "id": 3480665605, "lat": 48.9664901, "lon": 13.4405838, "tags": {"ele": "1304", "name": "B\u00e4renlochriegel", "natural": "peak"}}, {"type": "node", "id": 3481238184, "lat": 48.9694063, "lon": 13.3893469, "tags": {"name": "Schuhnagelkopf", "natural": "peak"}}, {"type": "node", "id": 3524996008, "lat": 49.0908274, "lon": 13.3565999, "tags": {"ele": "1102.2", "name": "Horn\u00ed \u017dd\u00e1nidla", "name:cs": "Horn\u00ed \u017dd\u00e1nidla", "name:de": "Obersteindlberg", "natural": "peak"}}, {"type": "node", "id": 3588572929, "lat": 49.1304068, "lon": 13.2886286, "tags": {"ele": "1295", "name": "Polom", "name:de": "Fallbaum", "natural": "peak"}}, {"type": "node", "id": 3656894794, "lat": 49.0824462, "lon": 13.2863311, "tags": {"name": "H\u00f6llbachriegel", "natural": "peak"}}, {"type": "node", "id": 3656895927, "lat": 49.0810986, "lon": 13.2874317, "tags": {"natural": "peak"}}, {"type": "node", "id": 3721908793, "lat": 48.9391887, "lon": 13.4031133, "tags": {"ele": "852", "name": "Siebenr\u00fccken", "natural": "peak", "wikidata": "Q31318480"}}, {"type": "node", "id": 3755818454, "lat": 48.9235854, "lon": 13.5263267, "tags": {"ele": "1260", "name": "Hochgefeichtetstein", "natural": "peak"}}, {"type": "node", "id": 3799225463, "lat": 48.9241523, "lon": 13.5260505, "tags": {"ele": "1257", "name": "Sulzriegel", "natural": "peak", "wikidata": "Q2365129"}}, {"type": "node", "id": 3886035288, "lat": 49.0034687, "lon": 13.3409899, "tags": {"ele": "906", "natural": "peak"}}, {"type": "node", "id": 3886039689, "lat": 48.9943148, "lon": 13.3775051, "tags": {"ele": "1120", "natural": "peak"}}, {"type": "node", "id": 3986429911, "lat": 48.9708881, "lon": 13.3968287, "tags": {"name": "Felsensturz", "natural": "peak"}}, {"type": "node", "id": 4315361054, "lat": 48.9921548, "lon": 13.3796934, "tags": {"ele": "1245", "natural": "peak"}}, {"type": "node", "id": 4315361055, "lat": 48.9925159, "lon": 13.3798397, "tags": {"ele": "1250", "natural": "peak"}}, {"type": "node", "id": 4318845467, "lat": 49.0222454, "lon": 13.3502381, "tags": {"natural": "peak"}}, {"type": "node", "id": 4415610386, "lat": 48.9546028, "lon": 13.5337391, "tags": {"ele": "1047", "natural": "peak"}}, {"type": "node", "id": 4431668122, "lat": 48.9674747, "lon": 13.4500843, "tags": {"ele": "1367", "name": "Blatn\u00fd vrch", "natural": "peak"}}, {"type": "node", "id": 4564844444, "lat": 49.0338099, "lon": 13.2916707, "tags": {"ele": "831", "natural": "peak"}}, {"type": "node", "id": 4848276479, "lat": 49.0569994, "lon": 13.3239198, "tags": {"name": "Scheuereckriegel", "natural": "peak"}}, {"type": "node", "id": 4978104062, "lat": 49.0847366, "lon": 13.2799821, "tags": {"ele": "1315", "name": "Gro\u00dfer Falkenstein", "natural": "peak", "summit:cross": "yes", "wikidata": "Q895753", "wikipedia": "de:Gro\u00dfer Falkenstein"}}, {"type": "node", "id": 5092289928, "lat": 48.914705, "lon": 13.5001755, "tags": {"ele": "976", "name": "B\u00e4renkopf", "natural": "peak"}}, {"type": "node", "id": 5092752013, "lat": 48.9235567, "lon": 13.5007109, "tags": {"name": "Luchsstein", "natural": "peak", "wikidata": "Q31531479"}}, {"type": "node", "id": 5138361911, "lat": 48.9621975, "lon": 13.3912054, "tags": {"natural": "peak"}}, {"type": "node", "id": 5138366345, "lat": 48.9578049, "lon": 13.3877646, "tags": {"ele": "1134", "name": "Steinkopf", "natural": "peak", "wikidata": "Q31518778"}}, {"type": "node", "id": 5614147165, "lat": 48.9811233, "lon": 13.3405805, "tags": {"natural": "peak"}}, {"type": "node", "id": 5614147275, "lat": 48.9910108, "lon": 13.3379337, "tags": {"natural": "peak"}}, {"type": "node", "id": 5614157921, "lat": 48.9908078, "lon": 13.349474, "tags": {"natural": "peak"}}, {"type": "node", "id": 6026614994, "lat": 49.0419693, "lon": 13.4707372, "tags": {"ele": "1070", "natural": "peak"}}, {"type": "node", "id": 7098631577, "lat": 49.0184228, "lon": 13.4876873, "tags": {"ele": "1101", "natural": "peak", "source": "\u010c\u00daZK"}}, {"type": "node", "id": 7098647125, "lat": 49.0098798, "lon": 13.4599822, "tags": {"ele": "1110", "natural": "peak", "source": "\u010c\u00daZK"}}, {"type": "node", "id": 7773745925, "lat": 48.9695427, "lon": 13.5074488, "tags": {"ele": "1331", "name": "Mal\u00e1 Mokr\u016fvka", "name:de": "Moorkopf", "natural": "peak", "source": "\u010c\u00daZK"}}, {"type": "node", "id": 7972230710, "lat": 48.9367145, "lon": 13.5210641, "tags": {"ele": "1279", "name": "Hoher Filzberg", "natural": "peak", "wikidata": "Q1623890", "wikipedia": "en:Hoher Filzberg"}}, {"type": "node", "id": 9350086943, "lat": 49.0700264, "lon": 13.4042643, "tags": {"ele": "1118.6", "natural": "peak"}}, {"type": "node", "id": 9350086945, "lat": 49.1040136, "lon": 13.3470931, "tags": {"ele": "1308", "name": "\u017dd\u00e1nidla", "name:cs": "\u017dd\u00e1nidla", "name:de": "Steindlberg", "natural": "peak", "source": "\u010c\u00daZK"}}, {"type": "node", "id": 9532882552, "lat": 48.9888772, "lon": 13.45691, "tags": {"ele": "1203", "natural": "peak", "source": "\u010c\u00daZK"}}, {"type": "node", "id": 9532882553, "lat": 48.9927499, "lon": 13.456372, "tags": {"ele": "1188", "natural": "peak", "source": "\u010c\u00daZK"}}, {"type": "node", "id": 9532882554, "lat": 49.0072824, "lon": 13.4188336, "tags": {"ele": "1137", "name": "Medv\u011bd", "natural": "peak", "source": "\u010c\u00daZK"}}, {"type": "node", "id": 9532882555, "lat": 49.0447796, "lon": 13.4154893, "tags": {"ele": "1139", "name": "Javo\u0159\u00ed", "natural": "peak", "source": "\u010c\u00daZK"}}, {"type": "node", "id": 9532882556, "lat": 49.0261675, "lon": 13.4701511, "tags": {"ele": "1052", "natural": "peak", "source": "\u010c\u00daZK"}}, {"type": "node", "id": 11534892878, "lat": 49.0451942, "lon": 13.2575958, "tags": {"name": "Hanslkreuz", "natural": "peak"}}]}