{"version": 0.6, "generator": "Overpass API 0.7.61.5 4133829e", "osm3s": {"timestamp_osm_base": "2024-03-12T21:08:30Z", "copyright": "The data included in this document is from www.openstreetmap.org. The data is made available under ODbL."}, "elements": [{"type": "node", "id": 26863050, "lat": 49.1124718, "lon": 13.13619, "tags": {"ele": "1456", "importance": "national", "name": "Gro\u00dfer Arber", "name:cs": "Velk\u00fd Javor", "name:ru": "\u0411\u043e\u043b\u044c\u0448\u043e\u0439 \u042f\u0432\u043e\u0440", "natural": "peak", "prominence": "1026", "summit:cross": "yes", "wikidata": "Q260073", "wikipedia": "de:Gro\u00dfer Arber"}}, {"type": "node", "id": 96428401, "lat": 49.1659, "lon": 12.9729999, "tags": {"ele": "1132", "name": "Gro\u00dfer Riedelstein", "natural": "peak", "source": "http://de.wikipedia.org/wiki/Gro%C3%9Fer_Riedelstein", "wikidata": "Q1548933", "wikipedia": "en:Gro\u00dfer Riedelstein"}}, {"type": "node", "id": 96428403, "lat": 49.2031833, "lon": 13.1097845, "tags": {"ele": "1293", "name": "Gro\u00dfer Osser", "name:cs": "Ostr\u00fd", "name:de": "Gro\u00dfer Osser", "natural": "peak", "source": "\u010c\u00daZK", "wikidata": "Q884746"}}, {"type": "node", "id": 96428405, "lat": 49.1133011, "lon": 13.1100722, "tags": {"ele": "1384", "name": "Kleiner Arber", "name:cs": "Mal\u00fd Javor", "natural": "peak", "source": "wikipedia.de", "summit:cross": "yes", "wikidata": "Q882309", "wikipedia": "de:Kleiner Arber"}}, {"type": "node", "id": 173849656, "lat": 49.1702239, "lon": 12.9604782, "tags": {"ele": "1042", "name": "Rauchr\u00f6hren", "natural": "peak", "sport": "climbing", "wikidata": "Q31566010"}}, {"type": "node", "id": 173849666, "lat": 49.1732347, "lon": 12.9422827, "tags": {"ele": "1034", "name": "Mittagstein", "natural": "peak", "wikidata": "Q602013", "wikipedia": "de:Mittagstein (Bayerischer Wald)"}}, {"type": "node", "id": 173853050, "lat": 49.1764528, "lon": 12.9227995, "tags": {"ele": "999", "name": "Kreuzfelsen", "natural": "peak", "summit:cross": "yes", "summit:register": "yes", "wikidata": "Q1788267", "wikipedia": "de:Kreuzfelsen (Bayerischer Wald)"}}, {"type": "node", "id": 265094431, "lat": 49.2017348, "lon": 13.1032394, "tags": {"ele": "1266", "name": "Kleiner Osser", "name:cs": "Mal\u00fd Ostr\u00fd", "natural": "peak", "wikipedia": "de:Kleiner Osser"}}, {"type": "node", "id": 281997902, "lat": 49.0571546, "lon": 13.1243106, "tags": {"ele": "955", "name": "Silberberg", "natural": "peak", "wikidata": "Q2285737", "wikipedia": "de:Silberberg (Bodenmais)"}}, {"type": "node", "id": 290221610, "lat": 49.2401279, "lon": 12.9264333, "tags": {"ele": "1017", "name": "B\u00e4renriegel", "natural": "peak"}}, {"type": "node", "id": 290221611, "lat": 49.2494248, "lon": 12.8908193, "tags": {"ele": "976", "name": "Burgstall", "natural": "peak", "wikidata": "Q31550279"}}, {"type": "node", "id": 290221627, "lat": 49.2372852, "lon": 12.9329665, "tags": {"ele": "1073", "name": "Eckstein", "natural": "peak"}}, {"type": "node", "id": 295661960, "lat": 48.9643769, "lon": 12.8800093, "tags": {"ele": "1095", "name": "Hirschenstein", "natural": "peak", "source": "H\u00f6henabgabe an Felstafel", "wikidata": "Q1402730", "wikipedia": "de:Hirschenstein (Bayerischer Wald)"}}, {"type": "node", "id": 295667592, "lat": 49.0023398, "lon": 12.8488065, "tags": {"ele": "1024", "name": "Predigtstuhl", "natural": "peak", "wikidata": "Q871060", "wikipedia": "de:Predigtstuhl (Vorderer Bayerischer Wald)"}}, {"type": "node", "id": 295668282, "lat": 49.0219662, "lon": 12.8211454, "tags": {"ele": "1048", "name": "Pr\u00f6ller", "natural": "peak", "tourism": "viewpoint", "wikidata": "Q880452", "wikipedia": "de:Pr\u00f6ller"}}, {"type": "node", "id": 297562061, "lat": 48.9547041, "lon": 12.8429102, "tags": {"ele": "928", "name": "Schopf", "natural": "peak", "wikidata": "Q19294837"}}, {"type": "node", "id": 309432989, "lat": 48.995904, "lon": 12.8571683, "tags": {"ele": "1056", "name": "Knogl", "natural": "peak", "wikidata": "Q1554016", "wikipedia": "de:Knogl (Vorderer Bayerischer Wald)"}}, {"type": "node", "id": 322058645, "lat": 49.0465291, "lon": 12.7528403, "tags": {"natural": "peak", "summit:cross": "yes"}}, {"type": "node", "id": 323839344, "lat": 48.9281616, "lon": 13.0277588, "tags": {"ele": "1121", "name": "Ein\u00f6driegel", "natural": "peak", "summit:cross": "yes", "summit:register": "yes", "wikidata": "Q1310425", "wikimedia_commons": "Category:Ein\u00f6driegel", "wikipedia": "de:Ein\u00f6driegel (Bayerischer Wald)"}}, {"type": "node", "id": 323839655, "lat": 48.9240769, "lon": 13.0374226, "tags": {"ele": "1097", "name": "Gei\u00dfkopf", "natural": "peak", "wikidata": "Q163484", "wikipedia": "de:Gei\u00dfkopf"}}, {"type": "node", "id": 323850384, "lat": 48.906548, "lon": 13.0300211, "tags": {"alt_name": "Breitenau Riegel", "ele": "1114", "loc_name": "Breitenauer Riegel", "name": "Breitenauriegel", "natural": "peak", "picture": "https://photos.app.goo.gl/mRE7GwWuhPCEhYZf7", "sport": "climbing", "summit:cross": "yes", "summit:register": "no", "tourism": "viewpoint", "wikidata": "Q906089", "wikipedia": "de:Breitenauriegel"}}, {"type": "node", "id": 392073103, "lat": 49.2262446, "lon": 12.6895725, "tags": {"ele": "415", "name": "Galgenberg", "natural": "peak", "source": "http://de.wikipedia.org/wiki/Burgstall_Schwedenschanze", "wikidata": "Q30728240"}}, {"type": "node", "id": 403303195, "lat": 49.1237073, "lon": 13.0830635, "tags": {"ele": "1287", "name": "Enzian", "natural": "peak", "source": "wikipedia.de", "wikidata": "Q1346013", "wikipedia": "de:Enzian (Bayerischer Wald)"}}, {"type": "node", "id": 403307514, "lat": 49.1292361, "lon": 13.0682204, "tags": {"ele": "1262", "name": "Heugstatt", "natural": "peak", "wikidata": "Q1438190", "wikipedia": "de:Heugstatt"}}, {"type": "node", "id": 403315504, "lat": 49.1569817, "lon": 13.0149053, "tags": {"ele": "1079", "name": "M\u00fchlriegel", "natural": "peak", "source": "wikipedia.de", "summit:cross": "yes", "summit:register": "yes", "viewpoint": "yes", "wikidata": "Q1958642", "wikipedia": "de:M\u00fchlriegel (Bayerischer Wald)"}}, {"type": "node", "id": 414734287, "lat": 48.9485091, "lon": 12.8988447, "tags": {"ele": "1050", "name": "Rauher Kulm", "natural": "peak", "tourism": "viewpoint", "wikidata": "Q1319170"}}, {"type": "node", "id": 416427242, "lat": 48.9694705, "lon": 13.2555143, "tags": {"ele": "858", "name": "Dreik\u00f6gelriegel", "natural": "peak"}}, {"type": "node", "id": 416644868, "lat": 49.0450716, "lon": 13.1815386, "tags": {"alt_name": "H\u00fchnerkobel", "ele": "965", "name": "Hennenkobel", "natural": "peak", "summit:cross": "yes", "summit:register": "yes", "wikidata": "Q1605368", "wikipedia": "de:Hennenkobel"}}, {"type": "node", "id": 416678030, "lat": 49.0369388, "lon": 13.1053062, "tags": {"ele": "983", "name": "Kronberg", "natural": "peak", "wikidata": "Q1634170", "wikipedia": "de:Kronberg (Niederbayern)"}}, {"type": "node", "id": 436158256, "lat": 49.0494155, "lon": 13.0806915, "tags": {"ele": "914", "name": "Harlachberger Spitze", "natural": "peak", "summit:cross": "yes", "summit:register": "yes", "website": "https://regiowiki.pnp.de/index.php/Harlachberg_bei_Bodenmais", "wikidata": "Q31542264"}}, {"type": "node", "id": 437029767, "lat": 49.1464908, "lon": 13.0573865, "tags": {"ele": "1080", "name": "H\u00e4ngender Riegel", "natural": "peak"}}, {"type": "node", "id": 535979310, "lat": 48.9763298, "lon": 13.2292152, "tags": {"ele": "870", "name": "K\u00fchberg", "natural": "peak", "wikidata": "Q31566903"}}, {"type": "node", "id": 563809981, "lat": 49.1727429, "lon": 13.2082479, "tags": {"ele": "1202", "name": "\u0160pi\u010d\u00e1k", "name:de": "Spitzberg", "natural": "peak", "wikidata": "Q2688045", "wikipedia": "cs:\u0160pi\u010d\u00e1k (\u017deleznorudsk\u00e1 hornatina)"}}, {"type": "node", "id": 576647349, "lat": 49.2166689, "lon": 13.1138594, "tags": {"ele": "1100", "name": "J\u00e4gerh\u00fcbel", "name:cs": "Hole", "natural": "peak", "source:ele": "tisicovky.cz", "source:name": "tisicovky.cz"}}, {"type": "node", "id": 576647358, "lat": 49.226964, "lon": 13.0891868, "tags": {"ele": "1102", "name": "Helmwald", "natural": "peak", "source:ele": "tisicovky.cz", "source:name": "tisicovky.cz"}}, {"type": "node", "id": 576699851, "lat": 49.168656, "lon": 13.1847617, "tags": {"ele": "1344", "name": "Jezern\u00ed hora", "name:de": "Hohe Seewand", "natural": "peak", "prominence": "309", "source": "tisicovky.cz"}}, {"type": "node", "id": 576717511, "lat": 49.175129, "lon": 13.2003386, "tags": {"ele": "1190", "name": "Mal\u00fd \u0160pi\u010d\u00e1k", "name:de": "Kleiner Spitzberg", "natural": "peak", "source": "\u010c\u00daZK"}}, {"type": "node", "id": 577336410, "lat": 49.1852778, "lon": 13.1463889, "tags": {"ele": "1229", "name": "Velk\u00fd Kokrh\u00e1\u010d", "natural": "peak", "source": "tisicovky.cz"}}, {"type": "node", "id": 591935258, "lat": 49.0607078, "lon": 12.9799272, "tags": {"ele": "705", "name": "Knogelberg", "natural": "peak", "wikidata": "Q31533903"}}, {"type": "node", "id": 591937869, "lat": 49.0614251, "lon": 12.963937, "tags": {"ele": "673", "name": "Schlo\u00dfberg", "natural": "peak"}}, {"type": "node", "id": 606492368, "lat": 48.9518062, "lon": 13.2528126, "tags": {"ele": "749", "name": "Kohlbichel", "natural": "peak"}}, {"type": "node", "id": 632783339, "lat": 49.285628, "lon": 12.8224482, "tags": {"ele": "463", "name": "Striegelberg", "natural": "peak"}}, {"type": "node", "id": 632799523, "lat": 49.2832942, "lon": 12.7832023, "tags": {"ele": "463", "name": "Wirtsb\u00fchl", "natural": "peak"}}, {"type": "node", "id": 671758541, "lat": 48.9506596, "lon": 13.1758079, "tags": {"ele": "690", "name": "Plattenh\u00f6he", "natural": "peak"}}, {"type": "node", "id": 775651325, "lat": 49.2348824, "lon": 12.9440756, "tags": {"ele": "1050", "name": "Ahornriegel", "natural": "peak"}}, {"type": "node", "id": 846163246, "lat": 48.9020427, "lon": 12.6969849, "tags": {"ele": "432", "name": "Bogenberg", "natural": "peak", "wikidata": "Q18410858", "wikipedia": "de:Bogenberg (Berg)"}}, {"type": "node", "id": 873636642, "lat": 49.1465603, "lon": 13.0645594, "tags": {"ele": "1235", "name": "Schwarzeck", "natural": "peak", "wikidata": "Q516926", "wikipedia": "de:Schwarzeck (Bayerischer Wald)"}}, {"type": "node", "id": 906245584, "lat": 49.137595, "lon": 12.9677913, "tags": {"ele": "594", "name": "Streitberg", "natural": "peak"}}, {"type": "node", "id": 1008802462, "lat": 49.1876844, "lon": 13.1793654, "tags": {"ele": "1093", "natural": "peak", "source": "\u010c\u00daZK"}}, {"type": "node", "id": 1149812832, "lat": 49.0776795, "lon": 13.1332083, "tags": {"ele": "1208", "name": "Hochzellberg", "natural": "peak", "wikidata": "Q968738", "wikipedia": "de:Hochzellberg"}}, {"type": "node", "id": 1161322926, "lat": 49.0459941, "lon": 13.0935857, "tags": {"ele": "869", "name": "Strohmannhanselh\u00f6he", "natural": "peak"}}, {"type": "node", "id": 1272507425, "lat": 48.9344318, "lon": 12.9435935, "tags": {"ele": "1022", "name": "Vogelsang", "natural": "peak", "summit:cross": "yes", "summit:register": "yes", "wikidata": "Q1300942", "wikipedia": "de:Vogelsang (Bayerischer Wald)"}}, {"type": "node", "id": 1280312259, "lat": 49.2422681, "lon": 12.6988481, "tags": {"ele": "563", "historic": "ruins", "name": "Ruine Buchberg;Schlossberg", "natural": "peak"}}, {"type": "node", "id": 1313209783, "lat": 49.0190825, "lon": 13.0335409, "tags": {"name": "Berliner Kreuz", "natural": "peak"}}, {"type": "node", "id": 1350051064, "lat": 49.0694772, "lon": 13.2391857, "tags": {"ele": "782", "name": "Sulzriegel", "natural": "peak"}}, {"type": "node", "id": 1378735198, "lat": 48.9326754, "lon": 13.064643, "tags": {"ele": "901", "name": "Teufelstisch", "natural": "peak", "wikidata": "Q2407268", "wikipedia": "de:Teufelstisch (Bayerischer Wald)"}}, {"type": "node", "id": 1399515171, "lat": 48.906167, "lon": 12.9476403, "tags": {"ele": "775", "name": "Butzen", "natural": "peak", "summit:cross": "yes", "summit:register": "yes"}}, {"type": "node", "id": 1404351251, "lat": 48.9215624, "lon": 12.9990247, "tags": {"ele": "835", "name": "K\u00fchberg", "natural": "peak", "wikidata": "Q31532892"}}, {"type": "node", "id": 1404352472, "lat": 48.9224929, "lon": 12.987695, "tags": {"name": "Hummelsberg", "natural": "peak"}}, {"type": "node", "id": 1404363111, "lat": 48.9197435, "lon": 13.0630651, "tags": {"ele": "824", "name": "Hermannschopf", "natural": "peak"}}, {"type": "node", "id": 1404364857, "lat": 48.9336584, "lon": 13.0888894, "tags": {"ele": "891", "name": "Stadelberg", "natural": "peak"}}, {"type": "node", "id": 1404364860, "lat": 48.9416362, "lon": 13.0875161, "tags": {"ele": "663", "name": "Finkenrieder Berg", "natural": "peak"}}, {"type": "node", "id": 1407391644, "lat": 48.9371703, "lon": 12.9870433, "tags": {"ele": "727", "name": "Hocheck", "natural": "peak"}}, {"type": "node", "id": 1407404108, "lat": 48.9719171, "lon": 13.0166549, "tags": {"ele": "687", "name": "Buchberg", "natural": "peak"}}, {"type": "node", "id": 1407404121, "lat": 48.9576042, "lon": 13.0334777, "tags": {"ele": "871", "name": "Rosenberg", "natural": "peak", "wikidata": "Q31525348"}}, {"type": "node", "id": 1407404123, "lat": 48.9526445, "lon": 13.0456657, "tags": {"ele": "818", "name": "Bornstein", "natural": "peak", "summit:cross": "yes"}}, {"type": "node", "id": 1407431204, "lat": 48.9450348, "lon": 12.9419822, "tags": {"ele": "934", "name": "Hochriedriegel", "natural": "peak", "wikidata": "Q30724413"}}, {"type": "node", "id": 1407465707, "lat": 48.9081538, "lon": 12.9539771, "tags": {"ele": "684", "name": "Fuchsberg", "natural": "peak", "wikidata": "Q30736729"}}, {"type": "node", "id": 1407484391, "lat": 48.9503368, "lon": 12.8961756, "tags": {"ele": "1048", "name": "Klausenstein", "natural": "peak", "note": "Provisorisches Gipfelkreuz", "summit:cross": "yes", "tourism": "viewpoint", "wikidata": "Q212723", "wikipedia": "de:Klausenstein (Bayern)"}}, {"type": "node", "id": 1407494789, "lat": 48.9316446, "lon": 12.8546924, "tags": {"ele": "721", "name": "Knogler Berg", "natural": "peak"}}, {"type": "node", "id": 1416318813, "lat": 48.9756706, "lon": 12.8878642, "tags": {"ele": "1053", "name": "K\u00e4lberbuckel", "natural": "peak", "wikidata": "Q186253"}}, {"type": "node", "id": 1420723116, "lat": 49.0485375, "lon": 12.6775127, "tags": {"ele": "709", "name": "Gallner Berg", "natural": "peak", "wikidata": "Q1492510"}}, {"type": "node", "id": 1453581973, "lat": 49.2301239, "lon": 13.0846191, "tags": {"natural": "peak"}}, {"type": "node", "id": 1453679289, "lat": 49.2080119, "lon": 13.1117054, "tags": {"natural": "peak"}}, {"type": "node", "id": 1470641948, "lat": 49.0386264, "lon": 12.8126073, "tags": {"ele": "978", "name": "Hanichelriegel", "natural": "peak", "wikidata": "Q18412213"}}, {"type": "node", "id": 1470641950, "lat": 49.0381908, "lon": 12.8071797, "tags": {"ele": "978", "name": "K\u00e4splatte", "natural": "peak", "wikidata": "Q1795479", "wikipedia": "de:K\u00e4splatte"}}, {"type": "node", "id": 1486378033, "lat": 49.1696152, "lon": 12.7892431, "tags": {"name": "Wei\u00dfer Felsen", "natural": "peak"}}, {"type": "node", "id": 1486404877, "lat": 49.1345922, "lon": 12.8143488, "tags": {"name": "Hirschpertberg", "natural": "peak", "wikidata": "Q31540249"}}, {"type": "node", "id": 1491248965, "lat": 49.0004257, "lon": 12.8556089, "tags": {"ele": "1025", "name": "Hochberg", "natural": "peak", "wikidata": "Q25392603"}}, {"type": "node", "id": 1615573947, "lat": 49.206956, "lon": 13.1105056, "tags": {"natural": "peak"}}, {"type": "node", "id": 1799419331, "lat": 48.9132501, "lon": 12.8986333, "tags": {"ele": "569", "name": "Hohes Buchet", "natural": "peak"}}, {"type": "node", "id": 1839444558, "lat": 49.067519, "lon": 13.0574965, "tags": {"ele": "818", "name": "Sternkn\u00f6ckel", "natural": "peak", "wikidata": "Q31518630"}}, {"type": "node", "id": 1839444562, "lat": 49.0700545, "lon": 13.039963, "tags": {"ele": "876", "name": "Wolfgangriegel", "natural": "peak", "wikidata": "Q31566888"}}, {"type": "node", "id": 1841412900, "lat": 49.0033459, "lon": 12.8159007, "tags": {"ele": "880.5", "name": "Kapellenberg", "natural": "peak"}}, {"type": "node", "id": 1868730821, "lat": 48.989223, "lon": 12.8951903, "tags": {"ele": "998", "name": "Schusterstein", "natural": "peak"}}, {"type": "node", "id": 1875438824, "lat": 49.000016, "lon": 13.1794302, "tags": {"name": "Ochsenberg", "natural": "peak"}}, {"type": "node", "id": 1875438884, "lat": 49.0069684, "lon": 13.1802158, "tags": {"name": "M\u00fchlberg", "natural": "peak"}}, {"type": "node", "id": 1875462397, "lat": 49.0028314, "lon": 13.1432312, "tags": {"name": "Unterdorfer Berg", "natural": "peak"}}, {"type": "node", "id": 1875478089, "lat": 48.9815288, "lon": 13.1166666, "tags": {"name": "Galgenberg", "natural": "peak"}}, {"type": "node", "id": 1875478131, "lat": 48.989161, "lon": 13.1038134, "tags": {"name": "Abendberg", "natural": "peak"}}, {"type": "node", "id": 1875478132, "lat": 48.9747123, "lon": 13.1077831, "tags": {"name": "K\u00fchberg", "natural": "peak"}}, {"type": "node", "id": 1878093630, "lat": 49.1236936, "lon": 13.0641426, "tags": {"ele": "1134", "name": "Hochstein", "natural": "peak", "wikidata": "Q1622341", "wikipedia": "de:Hochstein (Arbermassiv)"}}, {"type": "node", "id": 1891813231, "lat": 49.2147288, "lon": 13.1144343, "tags": {"ele": "1093", "name": "Wei\u00dfer Riegel", "natural": "peak"}}, {"type": "node", "id": 2051573244, "lat": 49.0084291, "lon": 13.0372816, "tags": {"name": "Hohes Kreuz", "natural": "peak"}}, {"type": "node", "id": 2051573245, "lat": 49.0240768, "lon": 13.0288273, "tags": {"name": "Vormittagberg", "natural": "peak"}}, {"type": "node", "id": 2153509227, "lat": 49.0397986, "lon": 12.7295176, "tags": {"natural": "peak", "summit:cross": "yes"}}, {"type": "node", "id": 2388611234, "lat": 49.0538336, "lon": 12.7974831, "tags": {"ele": "896", "name": "Bernhardsnagel", "natural": "peak", "source": "Wikipedia", "wikidata": "Q57282041"}}, {"type": "node", "id": 2388719374, "lat": 49.1631148, "lon": 13.0265857, "tags": {"ele": "1047", "name": "Haib\u00fchler Spitz", "natural": "peak"}}, {"type": "node", "id": 2388719375, "lat": 49.2160822, "lon": 12.8065002, "tags": {"ele": "742", "name": "Haidstein", "natural": "peak", "summit:cross": "yes", "wikidata": "Q31542692"}}, {"type": "node", "id": 2388719376, "lat": 49.1472222, "lon": 13.1572222, "tags": {"ele": "1062", "name": "Hindenburgkanzel", "natural": "peak", "source": "Wikipedia", "wikidata": "Q1619292", "wikipedia": "de:Hindenburgkanzel"}}, {"type": "node", "id": 2388746485, "lat": 49.1420189, "lon": 13.0897298, "tags": {"ele": "1015", "name": "H\u00f6rndl", "natural": "peak", "source": "Wikipedia", "wikidata": "Q31538003"}}, {"type": "node", "id": 2389014575, "lat": 49.1376826, "lon": 13.1466086, "tags": {"ele": "1125", "name": "Wagnerspitze", "natural": "peak", "source": "Wikipedia"}}, {"type": "node", "id": 2410851703, "lat": 49.1086495, "lon": 13.1468493, "tags": {"ele": "1228", "name": "Stallriegel", "natural": "peak", "summit:cross": "no", "summit:register": "yes"}}, {"type": "node", "id": 2450057589, "lat": 49.1133141, "lon": 12.8734666, "tags": {"ele": "457", "name": "Birkenberg", "natural": "peak", "wikidata": "Q31552483"}}, {"type": "node", "id": 2450057590, "lat": 49.0718398, "lon": 12.8567351, "tags": {"ele": "641", "name": "Distelberg", "natural": "peak", "wikidata": "Q30798607"}}, {"type": "node", "id": 2450057591, "lat": 49.0929436, "lon": 12.9649528, "tags": {"ele": "882", "name": "Riesberg", "natural": "peak", "wikidata": "Q31566873"}}, {"type": "node", "id": 2452343798, "lat": 49.1613125, "lon": 12.974748, "tags": {"ele": "1042", "name": "Kleiner Riedelstein", "natural": "peak", "summit:cross": "yes", "summit:register": "yes"}}, {"type": "node", "id": 2455697061, "lat": 49.0737042, "lon": 12.8320742, "tags": {"ele": "748", "name": "F\u00f6rchenbichel", "natural": "peak"}}, {"type": "node", "id": 2455697062, "lat": 49.0493887, "lon": 12.8309023, "tags": {"ele": "822", "name": "Kastenstein", "natural": "peak"}}, {"type": "node", "id": 2468531711, "lat": 48.9784846, "lon": 13.2198435, "tags": {"ele": "820", "name": "Kleines Hochgrainet", "natural": "peak"}}, {"type": "node", "id": 2482160659, "lat": 49.2336945, "lon": 12.9356052, "tags": {"ele": "1079", "name": "Schwarzriegel", "natural": "peak"}}, {"type": "node", "id": 2482160663, "lat": 49.2418162, "lon": 12.9037996, "tags": {"ele": "957", "name": "Kohlriegel", "natural": "peak"}}, {"type": "node", "id": 2669374024, "lat": 49.1079434, "lon": 13.2062999, "tags": {"ele": "941", "name": "Hochberg", "natural": "peak", "wikidata": "Q1621689", "wikipedia": "de:Hochberg (Bayerischer Wald, Bayerisch Eisenstein)"}}, {"type": "node", "id": 2670574080, "lat": 49.1735916, "lon": 13.2231606, "tags": {"ele": "1001", "natural": "peak", "source": "\u010c\u00daZK"}}, {"type": "node", "id": 2673647869, "lat": 49.1142192, "lon": 13.2217967, "tags": {"ele": "920", "name": "Dr\u00e4hberg", "natural": "peak"}}, {"type": "node", "id": 2848573065, "lat": 49.1268435, "lon": 13.0458981, "tags": {"ele": "1050", "name": "Plattenriegel", "natural": "peak"}}, {"type": "node", "id": 2962212596, "lat": 49.1301691, "lon": 13.1120544, "tags": {"ele": "1058", "name": "Spitzberg", "natural": "peak"}}, {"type": "node", "id": 2969872191, "lat": 49.1947024, "lon": 13.1324031, "tags": {"ele": "1138", "name": "Maxfelsen", "natural": "peak", "note": "hat den Namen wer erfunden?"}}, {"type": "node", "id": 2969966047, "lat": 49.1906293, "lon": 13.1371358, "tags": {"ele": "1169", "name": "Maly Kokrh\u00e1\u010d", "natural": "peak"}}, {"type": "node", "id": 2970748586, "lat": 49.1893925, "lon": 13.1360916, "tags": {"name": "Am Kn\u00f6chel", "natural": "peak", "place": "locality"}}, {"type": "node", "id": 2983633075, "lat": 48.979133, "lon": 12.7852738, "tags": {"ele": "614", "name": "Urberberg", "natural": "peak"}}, {"type": "node", "id": 2996229872, "lat": 49.0991072, "lon": 12.9600509, "tags": {"ele": "898", "name": "Weigelsberg", "natural": "peak", "wikidata": "Q2555272"}}, {"type": "node", "id": 2996234032, "lat": 49.0701329, "lon": 13.1578244, "tags": {"ele": "1108", "name": "Hahnenriegel", "natural": "peak", "note": "Bitte Standort bzw Position Pr\u00fcfen,scheint mir viel zu weit abseits"}}, {"type": "node", "id": 2996234833, "lat": 49.093397, "lon": 13.1428476, "tags": {"ele": "1340", "name": "Mittagsplatzl", "natural": "peak", "wikidata": "Q872635", "wikipedia": "de:Mittagsplatzl"}}, {"type": "node", "id": 2996234834, "lat": 49.0601635, "lon": 13.1793388, "tags": {"ele": "1050", "name": "Rote H\u00f6he", "natural": "peak"}}, {"type": "node", "id": 2996336468, "lat": 49.0571097, "lon": 13.1340578, "tags": {"ele": "993", "name": "Brandtner Riegel", "natural": "peak"}}, {"type": "node", "id": 3009214864, "lat": 49.2284712, "lon": 12.9308205, "tags": {"name": "Riebenzingriegel", "natural": "peak"}}, {"type": "node", "id": 3045856733, "lat": 49.0040178, "lon": 13.2126805, "tags": {"alt_name": "Vollh\u00fcgel", "name": "Zwieselberg", "natural": "peak"}}, {"type": "node", "id": 3086835031, "lat": 48.9329853, "lon": 12.8292497, "tags": {"name": "Degenberg", "natural": "peak"}}, {"type": "node", "id": 3194373475, "lat": 48.9874629, "lon": 13.2400056, "tags": {"ele": "808", "name": "Leitenwaldh\u00f6he", "natural": "peak"}}, {"type": "node", "id": 3252441016, "lat": 49.0586241, "lon": 12.985393, "tags": {"ele": "672", "name": "Pfarrerberg", "natural": "peak"}}, {"type": "node", "id": 3258596862, "lat": 48.9785582, "lon": 13.2134709, "tags": {"ele": "778", "name": "Asberg", "natural": "peak"}}, {"type": "node", "id": 3258612961, "lat": 49.0009734, "lon": 13.2309323, "tags": {"ele": "676", "name": "Glasberg", "natural": "peak"}}, {"type": "node", "id": 3283485115, "lat": 49.0157073, "lon": 12.9405198, "tags": {"ele": "810", "name": "Spitzberg", "natural": "peak", "wikidata": "Q30620086"}}, {"type": "node", "id": 3292193182, "lat": 49.0394547, "lon": 12.9645389, "tags": {"ele": "643", "name": "K\u00fchberg", "natural": "peak"}}, {"type": "node", "id": 3431111121, "lat": 48.9691622, "lon": 12.6820345, "tags": {"ele": "410", "name": "Teufelsfelsen", "natural": "peak", "wikidata": "Q17127663"}}, {"type": "node", "id": 3459052673, "lat": 49.1739781, "lon": 13.1664534, "tags": {"ele": "1334", "name": "Svaroh", "name:de": "Zwercheck", "natural": "peak", "source": "\u010c\u00daZK", "wikidata": "Q243865", "wikipedia": "cs:Svaroh (\u0160umava)"}}, {"type": "node", "id": 3595142245, "lat": 49.2025805, "lon": 12.7108444, "tags": {"ele": "516", "name": "Rote Marter", "natural": "peak", "summit:cross": "yes"}}, {"type": "node", "id": 3595169591, "lat": 49.1416833, "lon": 12.8551079, "tags": {"name": "Riederberg", "natural": "peak", "wikidata": "Q31526221"}}, {"type": "node", "id": 3595999220, "lat": 49.2323334, "lon": 13.0568058, "tags": {"ele": "903", "name": "Rotes Kreuz", "natural": "peak"}}, {"type": "node", "id": 3637953404, "lat": 49.1368994, "lon": 13.0898766, "tags": {"natural": "peak"}}, {"type": "node", "id": 3637961577, "lat": 49.1374752, "lon": 13.0890264, "tags": {"ele": "1084", "name": "Hochst\u00e4tter", "natural": "peak"}}, {"type": "node", "id": 3637965225, "lat": 49.142947, "lon": 13.0897452, "tags": {"natural": "peak"}}, {"type": "node", "id": 3637976792, "lat": 49.1417795, "lon": 13.0900368, "tags": {"natural": "peak"}}, {"type": "node", "id": 3637988498, "lat": 49.1279973, "lon": 13.0582936, "tags": {"natural": "peak"}}, {"type": "node", "id": 3668536559, "lat": 49.1915222, "lon": 12.9422011, "tags": {"natural": "peak"}}, {"type": "node", "id": 3673432656, "lat": 49.2534585, "lon": 13.049184, "tags": {"ele": "757", "name": "Auf der Schanz", "natural": "peak"}}, {"type": "node", "id": 3676910411, "lat": 49.1691353, "lon": 12.7902558, "tags": {"natural": "peak", "summit:cross": "yes"}}, {"type": "node", "id": 3678888819, "lat": 48.9337549, "lon": 12.9053977, "tags": {"ele": "830", "man_made": "cross", "name": "Burgstein", "natural": "peak", "summit:cross": "yes", "tourism": "viewpoint", "wikidata": "Q30810343"}}, {"type": "node", "id": 3712727227, "lat": 49.2410441, "lon": 12.9155616, "tags": {"ele": "979", "name": "Farrenruck", "natural": "peak", "tourism": "viewpoint", "viewpoint_direction": "N"}}, {"type": "node", "id": 3806569586, "lat": 49.2074908, "lon": 13.086599, "tags": {"name": "Sattel", "natural": "peak"}}, {"type": "node", "id": 3873788210, "lat": 49.0128939, "lon": 13.1338318, "tags": {"ele": "833", "name": "Oberberg", "natural": "peak"}}, {"type": "node", "id": 3942355134, "lat": 48.9381768, "lon": 13.2396828, "tags": {"ele": "745", "name": "Riedstein", "natural": "peak"}}, {"type": "node", "id": 3942501807, "lat": 48.9500169, "lon": 13.2448311, "tags": {"ele": "790", "natural": "peak"}}, {"type": "node", "id": 4122663604, "lat": 49.1138305, "lon": 13.201203, "tags": {"ele": "875", "name": "Hochfels", "natural": "peak"}}, {"type": "node", "id": 4187219671, "lat": 49.0090297, "lon": 12.8074193, "tags": {"name": "Egidi-Buckel", "natural": "peak"}}, {"type": "node", "id": 4248130320, "lat": 49.109989, "lon": 13.1599046, "tags": {"name": "Kopfriegel", "natural": "peak"}}, {"type": "node", "id": 4290014347, "lat": 49.14191, "lon": 13.0981832, "tags": {"ele": "961", "natural": "peak"}}, {"type": "node", "id": 4290014350, "lat": 49.141771, "lon": 13.1002423, "tags": {"ele": "1015", "name": "Schneiderberg", "natural": "peak"}}, {"type": "node", "id": 4290185029, "lat": 49.1452531, "lon": 13.0902383, "tags": {"ele": "974", "name": "Sphinx", "natural": "peak"}}, {"type": "node", "id": 4290979071, "lat": 49.1364876, "lon": 13.0989979, "tags": {"ele": "1028", "natural": "peak"}}, {"type": "node", "id": 4316949760, "lat": 49.1373421, "lon": 13.0762288, "tags": {"ele": "1175", "name": "B\u00e4renriegel", "natural": "peak"}}, {"type": "node", "id": 4340282170, "lat": 49.0431928, "lon": 13.2306289, "tags": {"natural": "peak"}}, {"type": "node", "id": 4462909989, "lat": 49.1113081, "lon": 13.1249562, "tags": {"ele": "1271", "natural": "peak"}}, {"type": "node", "id": 4463038861, "lat": 49.1429779, "lon": 13.1150216, "tags": {"ele": "886", "name": "Sollerberg", "natural": "peak"}}, {"type": "node", "id": 4484125074, "lat": 49.1413463, "lon": 13.2104186, "tags": {"ele": "924", "name:de": "Jandaberg", "natural": "peak"}}, {"type": "node", "id": 4806306485, "lat": 49.0839432, "lon": 13.2235318, "tags": {"ele": "675", "natural": "peak"}}, {"type": "node", "id": 4849561178, "lat": 49.1778606, "lon": 13.0348769, "tags": {"ele": "862", "name": "Traillingriegel", "natural": "peak"}}, {"type": "node", "id": 4865834075, "lat": 49.0407014, "lon": 13.055525, "tags": {"ele": "675", "name": "B\u00f6lmersberg", "natural": "peak"}}, {"type": "node", "id": 4865859909, "lat": 49.0519099, "lon": 13.0540752, "tags": {"ele": "547", "name": "Ochsenberg", "natural": "peak"}}, {"type": "node", "id": 5001231975, "lat": 49.0611207, "lon": 12.9990015, "tags": {"ele": "581", "name": "Ochsenberg", "natural": "peak"}}, {"type": "node", "id": 5056881604, "lat": 49.2555184, "lon": 13.0669547, "tags": {"ele": "750", "natural": "peak"}}, {"type": "node", "id": 5056882077, "lat": 49.2707662, "lon": 13.0527228, "tags": {"ele": "751", "name": "Kame\u0148\u00e1k", "natural": "peak"}}, {"type": "node", "id": 5056885255, "lat": 49.2279465, "lon": 13.1197882, "tags": {"ele": "1005", "name": "Na v\u00fd\u0161in\u011b", "natural": "peak", "source": "\u010c\u00daZK"}}, {"type": "node", "id": 5056885524, "lat": 49.2533078, "lon": 13.0818556, "tags": {"ele": "875", "natural": "peak"}}, {"type": "node", "id": 5056894544, "lat": 49.2336432, "lon": 13.0935539, "tags": {"ele": "1027", "name": "Lomni\u010dky", "natural": "peak", "source": "\u010c\u00daZK"}}, {"type": "node", "id": 5056921225, "lat": 49.2192167, "lon": 13.1207068, "tags": {"ele": "1091", "name": "Love\u010dn\u00e1", "natural": "peak", "source": "\u010c\u00daZK"}}, {"type": "node", "id": 5056925126, "lat": 49.2046887, "lon": 13.1585322, "tags": {"ele": "808", "natural": "peak"}}, {"type": "node", "id": 5077620392, "lat": 49.2729893, "lon": 12.699689, "tags": {"ele": "647", "name": "\u00d6chselsberg", "natural": "peak", "wikidata": "Q31529111"}}, {"type": "node", "id": 5077620393, "lat": 49.2627046, "lon": 12.7026133, "tags": {"ele": "568", "name": "Schlammeringer Berg", "natural": "peak"}}, {"type": "node", "id": 5077620394, "lat": 49.2665254, "lon": 12.6899215, "tags": {"ele": "575", "name": "Hochberg", "natural": "peak", "wikidata": "Q30726282"}}, {"type": "node", "id": 5082465214, "lat": 49.2716797, "lon": 13.027273, "tags": {"ele": "705", "name": "Hoher Stein", "natural": "peak"}}, {"type": "node", "id": 5082465215, "lat": 49.2666499, "lon": 13.0259899, "tags": {"ele": "705", "name": "Br\u00e4ndriegel", "natural": "peak"}}, {"type": "node", "id": 5084622916, "lat": 49.1325322, "lon": 12.6861947, "tags": {"ele": "671", "name": "K\u00f6pfelsberg", "natural": "peak", "wikidata": "Q31533487"}}, {"type": "node", "id": 5084622917, "lat": 49.1312066, "lon": 12.6834855, "tags": {"ele": "681", "name": "Weissenstein", "natural": "peak"}}, {"type": "node", "id": 5084624421, "lat": 49.2459099, "lon": 12.6852973, "tags": {"ele": "484", "name": "Kleiner Buchberg", "natural": "peak"}}, {"type": "node", "id": 5084624422, "lat": 49.2470682, "lon": 12.6927513, "tags": {"ele": "522", "name": "Grosser Buchberg", "natural": "peak"}}, {"type": "node", "id": 5084657726, "lat": 49.2378054, "lon": 12.8775674, "tags": {"ele": "700", "name": "Schlossberg", "natural": "peak", "wikidata": "Q31522638"}}, {"type": "node", "id": 5084658314, "lat": 49.2225744, "lon": 12.858335, "tags": {"ele": "653", "name": "Riegelholzberg", "natural": "peak"}}, {"type": "node", "id": 5086538073, "lat": 49.0480486, "lon": 12.6840361, "tags": {"ele": "704", "name": "K\u00fchleite", "natural": "peak"}}, {"type": "node", "id": 5086538074, "lat": 49.0479125, "lon": 12.695228, "tags": {"ele": "684", "name": "Blumerberg", "natural": "peak"}}, {"type": "node", "id": 5086565962, "lat": 49.21785, "lon": 12.762487, "tags": {"description": "Burgruine Runding", "ele": "543", "name": "Schlossberg (Runding)", "natural": "peak"}}, {"type": "node", "id": 5086680000, "lat": 49.2711357, "lon": 12.7329378, "tags": {"ele": "502", "name": "Dachsberg", "natural": "peak", "wikidata": "Q30806801"}}, {"type": "node", "id": 5086680001, "lat": 49.271842, "lon": 12.768361, "tags": {"ele": "433", "name": "Lohmerriegel", "natural": "peak"}}, {"type": "node", "id": 5086680002, "lat": 49.2494019, "lon": 12.7382268, "tags": {"ele": "413", "name": "Feuerstein", "natural": "peak"}}, {"type": "node", "id": 5089226542, "lat": 49.1991128, "lon": 12.7187722, "tags": {"ele": "602", "name": "Lamberg", "natural": "peak", "wikidata": "Q31532563"}}, {"type": "node", "id": 5089226543, "lat": 49.1909334, "lon": 12.7677694, "tags": {"ele": "646", "name": "Kleiner Ro\u00dfberg", "natural": "peak", "wikidata": "Q31534343"}}, {"type": "node", "id": 5092616675, "lat": 49.0581381, "lon": 12.6800738, "tags": {"ele": "615", "name": "Hungerberg", "natural": "peak"}}, {"type": "node", "id": 5116036782, "lat": 49.232234, "lon": 12.6839023, "tags": {"ele": "451", "name": "Ziflinger Bierl", "natural": "peak"}}, {"type": "node", "id": 5116036783, "lat": 49.1935003, "lon": 12.6957617, "tags": {"ele": "471", "name": "Distelberg", "natural": "peak"}}, {"type": "node", "id": 5116036784, "lat": 49.1902996, "lon": 12.7071373, "tags": {"ele": "494", "natural": "peak"}}, {"type": "node", "id": 5116036785, "lat": 49.1927235, "lon": 12.7121142, "tags": {"ele": "518", "name": "Achatsbuckel", "natural": "peak"}}, {"type": "node", "id": 5125956063, "lat": 48.9461142, "lon": 12.9408377, "tags": {"ele": "916", "natural": "peak"}}, {"type": "node", "id": 5176796024, "lat": 49.2921374, "lon": 12.9240185, "tags": {"ele": "506", "name": "Leminger H\u00f6he", "natural": "peak"}}, {"type": "node", "id": 5176796025, "lat": 49.2900992, "lon": 12.9314134, "tags": {"ele": "509", "name": "Forchenberg", "natural": "peak"}}, {"type": "node", "id": 5176796026, "lat": 49.2979559, "lon": 12.9463644, "tags": {"ele": "487", "name": "Kregerb\u00fchl", "natural": "peak"}}, {"type": "node", "id": 5176796027, "lat": 49.2996435, "lon": 12.9633762, "tags": {"ele": "532", "name": "\u00c4usserer Hahnenberg", "natural": "peak"}}, {"type": "node", "id": 5176796028, "lat": 49.3001205, "lon": 12.9758892, "tags": {"ele": "558", "name": "Innerer Hahnenberg", "natural": "peak", "wikidata": "Q31537236"}}, {"type": "node", "id": 5176796029, "lat": 49.2716636, "lon": 12.9809471, "tags": {"ele": "605", "name": "Bernh\u00f6he", "natural": "peak"}}, {"type": "node", "id": 5176796030, "lat": 49.2736201, "lon": 12.9733988, "tags": {"ele": "636", "name": "Buchberg", "natural": "peak"}}, {"type": "node", "id": 5176796031, "lat": 49.2644744, "lon": 12.9999204, "tags": {"ele": "662", "name": "Spandlberg", "natural": "peak"}}, {"type": "node", "id": 5176796032, "lat": 49.2695571, "lon": 12.9973026, "tags": {"ele": "626", "name": "B\u00fcschlberg", "natural": "peak"}}, {"type": "node", "id": 5176796033, "lat": 49.2530403, "lon": 12.9936735, "tags": {"ele": "590", "name": "Atzelberg", "natural": "peak"}}, {"type": "node", "id": 5176796034, "lat": 49.2493304, "lon": 13.0003333, "tags": {"ele": "595", "name": "St\u00e4ndelberg", "natural": "peak"}}, {"type": "node", "id": 5434460328, "lat": 49.198256, "lon": 13.1215709, "tags": {"ele": "1184", "name": "Huberriegel", "natural": "peak", "summit:cross": "yes"}}, {"type": "node", "id": 5438329538, "lat": 49.2474153, "lon": 12.8924981, "tags": {"ele": "940", "name": "Wei\u00dfmandl", "natural": "peak"}}, {"type": "node", "id": 5438329539, "lat": 49.247208, "lon": 12.9012404, "tags": {"ele": "915", "name": "Wolfsriegel", "natural": "peak"}}, {"type": "node", "id": 5438329540, "lat": 49.2443179, "lon": 12.9117946, "tags": {"ele": "915", "name": "Schmidtriegel", "natural": "peak"}}, {"type": "node", "id": 5438329541, "lat": 49.2680708, "lon": 12.8842549, "tags": {"ele": "582", "name": "Kleiner Berg", "natural": "peak"}}, {"type": "node", "id": 5438329542, "lat": 49.2637946, "lon": 12.8902276, "tags": {"ele": "645", "name": "Gei\u00dfberg", "natural": "peak"}}, {"type": "node", "id": 5438329543, "lat": 49.2842254, "lon": 12.8916132, "tags": {"ele": "460", "name": "F\u00f6hrenberg", "natural": "peak"}}, {"type": "node", "id": 5439432164, "lat": 49.2596924, "lon": 12.8492864, "tags": {"ele": "556", "name": "Trettinger Birkenberg", "natural": "peak"}}, {"type": "node", "id": 5440135922, "lat": 49.2429536, "lon": 12.9308331, "tags": {"ele": "923", "name": "P\u00fcrzerriegel", "natural": "peak"}}, {"type": "node", "id": 5440135923, "lat": 49.2351093, "lon": 12.9690945, "tags": {"ele": "793", "name": "Kagerstein", "natural": "peak"}}, {"type": "node", "id": 5440135924, "lat": 49.2771656, "lon": 12.9396669, "tags": {"ele": "497", "name": "Br\u00fcnst", "natural": "peak"}}, {"type": "node", "id": 5440873965, "lat": 49.1411388, "lon": 13.1595548, "tags": {"ele": "1173", "name": "Hindenburgfelsen", "natural": "peak"}}, {"type": "node", "id": 5440873966, "lat": 49.1440873, "lon": 13.1362017, "tags": {"ele": "978", "name": "Fuchsriegel", "natural": "peak"}}, {"type": "node", "id": 5503372191, "lat": 49.1970464, "lon": 13.1299546, "tags": {"ele": "1124", "name": "\u010cek\u00e1n\u00ed", "natural": "peak", "website": "http://www.tisicovky.cz/exp/sumava/cekani-95a/CB83C029-65D0-4537-BD25-F4EBBEF1B21Ebig.jpg"}}, {"type": "node", "id": 5551151321, "lat": 49.2391926, "lon": 13.0392141, "tags": {"ele": "780", "name": "Schindelauberg", "natural": "peak"}}, {"type": "node", "id": 5551151322, "lat": 49.2494402, "lon": 13.0516171, "tags": {"ele": "750", "name": "Steinb\u00fcgel", "natural": "peak"}}, {"type": "node", "id": 5551151323, "lat": 49.2414207, "lon": 13.0206159, "tags": {"ele": "774", "name": "Oberer Berg", "natural": "peak"}}, {"type": "node", "id": 5551151324, "lat": 49.2406922, "lon": 13.0099515, "tags": {"ele": "775", "name": "Vorderer Berg", "natural": "peak"}}, {"type": "node", "id": 5551151325, "lat": 49.2630549, "lon": 13.024318, "tags": {"ele": "708", "natural": "peak"}}, {"type": "node", "id": 5551151326, "lat": 49.2627608, "lon": 13.0170868, "tags": {"ele": "727", "natural": "peak"}}, {"type": "node", "id": 5551151327, "lat": 49.2597286, "lon": 13.0334351, "tags": {"ele": "773", "natural": "peak"}}, {"type": "node", "id": 5551151328, "lat": 49.2830072, "lon": 13.0271911, "tags": {"ele": "677", "name": "Stangenruck", "natural": "peak"}}, {"type": "node", "id": 5595776532, "lat": 49.2759481, "lon": 12.7445135, "tags": {"ele": "453", "name": "D\u00f6bersinger Berg", "natural": "peak"}}, {"type": "node", "id": 5595776533, "lat": 49.2717885, "lon": 12.7425565, "tags": {"ele": "452", "name": "K\u00fchberg", "natural": "peak"}}, {"type": "node", "id": 5595776534, "lat": 49.278125, "lon": 12.7281399, "tags": {"ele": "521", "name": "Schl\u00e4nglberg", "natural": "peak", "wikidata": "Q31522844"}}, {"type": "node", "id": 5595776537, "lat": 49.2713405, "lon": 12.7864373, "tags": {"ele": "443", "name": "Hobertberg", "natural": "peak"}}, {"type": "node", "id": 5595776538, "lat": 49.2640166, "lon": 12.7771553, "tags": {"ele": "426", "name": "Buchfeld", "natural": "peak"}}, {"type": "node", "id": 5595776539, "lat": 49.2467761, "lon": 12.7716475, "tags": {"ele": "431", "name": "Fuchsb\u00fchl", "natural": "peak"}}, {"type": "node", "id": 5595776540, "lat": 49.2468937, "lon": 12.783606, "tags": {"ele": "505", "name": "Hohenstein", "natural": "peak"}}, {"type": "node", "id": 5595776541, "lat": 49.2425371, "lon": 12.7799152, "tags": {"ele": "479", "name": "Kranewittberg", "natural": "peak"}}, {"type": "node", "id": 5595776542, "lat": 49.2552411, "lon": 12.8204863, "tags": {"ele": "496", "name": "Birkenberg", "natural": "peak"}}, {"type": "node", "id": 5596708110, "lat": 49.2664365, "lon": 12.936374, "tags": {"ele": "476", "name": "F\u00f6hrenberg", "natural": "peak"}}, {"type": "node", "id": 5596708111, "lat": 49.288001, "lon": 12.8991525, "tags": {"ele": "500", "name": "Karpfling", "natural": "peak"}}, {"type": "node", "id": 5596708112, "lat": 49.2824821, "lon": 12.975393, "tags": {"ele": "599", "name": "Weinerberg", "natural": "peak"}}, {"type": "node", "id": 5596708113, "lat": 49.2944943, "lon": 12.984817, "tags": {"ele": "525", "name": "Robelberg", "natural": "peak"}}, {"type": "node", "id": 5596708114, "lat": 49.297574, "lon": 12.9918146, "tags": {"ele": "589", "name": "Luiberg", "natural": "peak"}}, {"type": "node", "id": 5689555677, "lat": 49.0175319, "lon": 13.1442234, "tags": {"natural": "peak"}}, {"type": "node", "id": 5689555678, "lat": 49.0177061, "lon": 13.1442717, "tags": {"ele": "709", "name": "Anis", "natural": "peak"}}, {"type": "node", "id": 6637237138, "lat": 49.0645424, "lon": 12.8225489, "tags": {"ele": "688", "name": "Hofberg", "natural": "peak"}}, {"type": "node", "id": 6738423245, "lat": 48.9969731, "lon": 13.1921339, "tags": {"ele": "650", "name": "Hiermesb\u00fcgel", "natural": "peak", "note": "FIXME: Genaue Position des h\u00f6chsten Punktes noch zu bestimmen."}}, {"type": "node", "id": 6766980880, "lat": 49.0869504, "lon": 12.8743666, "tags": {"ele": "507", "name": "Wacht", "natural": "peak"}}, {"type": "node", "id": 7280161690, "lat": 48.9578661, "lon": 12.7586805, "tags": {"ele": "593", "material": "wood", "name": "Buchaberg", "natural": "peak", "summit:cross": "yes"}}, {"type": "node", "id": 7452948345, "lat": 49.1586561, "lon": 13.0249647, "tags": {"ele": "1154", "name": "\u00d6driegel", "natural": "peak"}}, {"type": "node", "id": 7452948346, "lat": 49.1504372, "lon": 13.0564589, "tags": {"ele": "1183", "name": "H\u00e4ngender Riegel", "natural": "peak", "source": "local knowledge"}}, {"type": "node", "id": 7452948347, "lat": 49.1395818, "lon": 13.0671528, "tags": {"ele": "1146", "natural": "peak"}}, {"type": "node", "id": 7717744366, "lat": 49.1507101, "lon": 13.1942367, "tags": {"ele": "1094", "natural": "peak"}}, {"type": "node", "id": 7717744370, "lat": 49.226062, "lon": 13.1445407, "tags": {"ele": "831", "natural": "peak"}}, {"type": "node", "id": 7717744371, "lat": 49.2354782, "lon": 13.1393051, "tags": {"ele": "703", "natural": "peak", "source": "\u010c\u00daZK"}}, {"type": "node", "id": 8532601693, "lat": 49.0364331, "lon": 12.7473026, "tags": {"ele": "814", "name": "Sommerberg", "natural": "peak"}}, {"type": "node", "id": 8569819697, "lat": 49.0709112, "lon": 12.8419805, "tags": {"ele": "786", "name": "Gsteinachh\u00f6he", "natural": "peak"}}, {"type": "node", "id": 9196153697, "lat": 48.9114981, "lon": 13.00033, "tags": {"ele": "1000", "name": "Steinberg", "natural": "peak", "summit:cross": "yes", "summit:register": "no"}}, {"type": "node", "id": 9532882549, "lat": 49.1585047, "lon": 13.2450945, "tags": {"ele": "1029", "natural": "peak", "source": "\u010c\u00daZK"}}, {"type": "node", "id": 9532882550, "lat": 49.131013, "lon": 13.2260075, "tags": {"ele": "790", "name": "Pep\u00edk", "natural": "peak", "source": "\u010c\u00daZK"}}, {"type": "node", "id": 9547605928, "lat": 49.2170552, "lon": 13.1740539, "tags": {"ele": "752", "name": "Nad Kn\u00ed\u017eec\u00edm Dvorem", "natural": "peak", "source": "\u010c\u00daZK"}}, {"type": "node", "id": 9920600097, "lat": 48.9873931, "lon": 12.7032577, "tags": {"ele": "481", "name": "Schwarzer Dachsberg", "natural": "peak"}}, {"type": "node", "id": 9920801944, "lat": 48.9800149, "lon": 12.7122376, "tags": {"ele": "468", "name": "Kirnh\u00f6he", "natural": "peak"}}, {"type": "node", "id": 9921378786, "lat": 49.0106303, "lon": 12.6761641, "tags": {"ele": "477", "name": "Sch\u00fctzberg", "natural": "peak"}}, {"type": "node", "id": 9951402029, "lat": 49.0157295, "lon": 12.7366707, "tags": {"ele": "728", "name": "Winterberg", "natural": "peak"}}, {"type": "node", "id": 9951402030, "lat": 49.0129421, "lon": 12.7391646, "tags": {"ele": "724", "name": "Loider H\u00f6he", "natural": "peak"}}, {"type": "node", "id": 10764160961, "lat": 48.9133056, "lon": 13.064332, "tags": {"ele": "759", "name": "Kleiner Riedstein", "natural": "peak"}}, {"type": "node", "id": 10764160962, "lat": 48.9120858, "lon": 13.0734837, "tags": {"ele": "751", "name": "Schachel", "natural": "peak"}}, {"type": "node", "id": 10764160963, "lat": 48.9136159, "lon": 13.0810583, "tags": {"ele": "709", "name": "B\u00e4rnstein", "natural": "peak"}}, {"type": "node", "id": 10764697556, "lat": 48.9663855, "lon": 12.9915047, "tags": {"ele": "627", "name": "Blattenbigel", "natural": "peak"}}, {"type": "node", "id": 10764697620, "lat": 48.9580523, "lon": 13.0048406, "tags": {"ele": "768", "name": "K\u00fchberg", "natural": "peak"}}, {"type": "node", "id": 10764697987, "lat": 48.9144197, "lon": 13.0960089, "tags": {"ele": "696", "name": "Hieselberg", "natural": "peak"}}, {"type": "node", "id": 10772132881, "lat": 48.9577987, "lon": 13.0167282, "tags": {"ele": "783", "name": "Bumsenberg", "natural": "peak"}}, {"type": "node", "id": 10777029896, "lat": 48.9295696, "lon": 13.0855322, "tags": {"ele": "662", "name": "M\u00fchlberg", "natural": "peak"}}, {"type": "node", "id": 10777029897, "lat": 48.9208285, "lon": 13.0857575, "tags": {"ele": "725", "name": "Schachenfeld", "natural": "peak"}}, {"type": "node", "id": 10777129107, "lat": 48.9099915, "lon": 13.109892, "tags": {"ele": "666", "name": "Schlo\u00dfberg", "natural": "peak"}}, {"type": "node", "id": 10777129108, "lat": 48.9265174, "lon": 13.1101763, "tags": {"ele": "600", "name": "Ochsenberg", "natural": "peak"}}, {"type": "node", "id": 10777129137, "lat": 48.9174726, "lon": 13.1076658, "tags": {"ele": "613", "name": "Pfefferberg", "natural": "peak"}}, {"type": "node", "id": 10777129152, "lat": 48.9515638, "lon": 13.0858326, "tags": {"ele": "635", "name": "Brechhausberg", "natural": "peak"}}, {"type": "node", "id": 10777129154, "lat": 48.9608278, "lon": 13.0980635, "tags": {"ele": "576", "name": "Riedberg", "natural": "peak"}}, {"type": "node", "id": 10777129155, "lat": 48.95658, "lon": 13.0840087, "tags": {"ele": "621", "name": "Gemeindeberg", "natural": "peak"}}, {"type": "node", "id": 10777129159, "lat": 48.9457578, "lon": 13.0947643, "tags": {"ele": "602", "name": "Schlo\u00dfberg", "natural": "peak"}}, {"type": "node", "id": 10805611532, "lat": 48.975182, "lon": 12.9357469, "tags": {"ele": "675", "name": "Kirchberg", "natural": "peak"}}, {"type": "node", "id": 10805617737, "lat": 48.960856, "lon": 12.9323137, "tags": {"ele": "690", "name": "Lindenauer Berg", "natural": "peak"}}, {"type": "node", "id": 10805635109, "lat": 48.9674983, "lon": 12.9475379, "tags": {"ele": "696", "name": "Achslacher Berg", "natural": "peak"}}, {"type": "node", "id": 10805635143, "lat": 48.9578128, "lon": 12.9563302, "tags": {"ele": "675", "name": "Hochgartenberg", "natural": "peak"}}, {"type": "node", "id": 10805637321, "lat": 48.9631876, "lon": 12.9422271, "tags": {"ele": "717", "name": "Eisberg", "natural": "peak"}}, {"type": "node", "id": 10857860894, "lat": 48.9031935, "lon": 12.8664601, "tags": {"ele": "392", "name": "K\u00fchberg", "natural": "peak"}}, {"type": "node", "id": 10859184955, "lat": 48.9442217, "lon": 12.9019779, "tags": {"ele": "999", "name": "Riedberg", "natural": "peak"}}, {"type": "node", "id": 10863886438, "lat": 48.9688647, "lon": 12.9043114, "tags": {"ele": "774", "name": "Sollenberg", "natural": "peak"}}, {"type": "node", "id": 10873366103, "lat": 48.9763229, "lon": 12.8960287, "tags": {"ele": "942", "name": "K\u00fchberg", "natural": "peak"}}, {"type": "node", "id": 10873411590, "lat": 48.9590949, "lon": 12.9206729, "tags": {"ele": "646", "name": "Farrenb\u00fchl", "natural": "peak"}}, {"type": "node", "id": 10892645446, "lat": 48.9924326, "lon": 12.9081953, "tags": {"ele": "909", "name": "Gei\u00dfberg", "natural": "peak"}}, {"type": "node", "id": 10920216277, "lat": 48.9640752, "lon": 12.8473306, "tags": {"ele": "811", "name": "Oberer Berg", "natural": "peak"}}, {"type": "node", "id": 10920219678, "lat": 48.9261333, "lon": 12.8570831, "tags": {"ele": "690", "name": "H\u00f6henberg", "natural": "peak"}}, {"type": "node", "id": 10933584052, "lat": 48.9764795, "lon": 12.8454934, "tags": {"ele": "740", "name": "Rettenbacher Leiten", "natural": "peak"}}, {"type": "node", "id": 10933584056, "lat": 48.9825969, "lon": 12.8741946, "tags": {"ele": "1056", "natural": "peak"}}, {"type": "node", "id": 10933603493, "lat": 48.9899193, "lon": 12.8730489, "tags": {"name": "1032", "natural": "peak"}}, {"type": "node", "id": 10933603495, "lat": 48.9820935, "lon": 12.8547281, "tags": {"ele": "812", "name": "Dachsberg", "natural": "peak"}}, {"type": "node", "id": 11065418736, "lat": 49.007468, "lon": 13.1201247, "tags": {"ele": "690", "name": "Weizriegel", "natural": "peak"}}]}