{"version": 0.6, "generator": "Overpass API 0.7.61.5 4133829e", "osm3s": {"timestamp_osm_base": "2024-03-14T09:05:00Z", "copyright": "The data included in this document is from www.openstreetmap.org. The data is made available under ODbL."}, "elements": [{"type": "node", "id": 95964264, "lat": 48.780679, "lon": 13.8031771, "tags": {"alt_name": "Dreisesselberg", "ele": "1323", "name": "Dreisessel", "name:cs": "T\u0159\u00edstoli\u010dn\u00edk", "natural": "peak", "wikidata": "Q457636", "wikipedia": "de:Dreisesselberg (Bayerischer Wald)"}}, {"type": "node", "id": 95964265, "lat": 48.7847492, "lon": 13.8027768, "tags": {"ele": "1333", "name": "Hochstein", "natural": "peak", "summit:cross": "yes", "summit:register": "no"}}, {"type": "node", "id": 270091838, "lat": 48.5423524, "lon": 13.7348659, "tags": {"natural": "peak"}}, {"type": "node", "id": 270091841, "lat": 48.5426933, "lon": 13.7223346, "tags": {"natural": "peak"}}, {"type": "node", "id": 270091851, "lat": 48.5518982, "lon": 13.721133, "tags": {"natural": "peak"}}, {"type": "node", "id": 270091853, "lat": 48.5615558, "lon": 13.7225062, "tags": {"natural": "peak"}}, {"type": "node", "id": 270091854, "lat": 48.5570113, "lon": 13.7377841, "tags": {"natural": "peak"}}, {"type": "node", "id": 270091855, "lat": 48.5258703, "lon": 13.7187297, "tags": {"natural": "peak"}}, {"type": "node", "id": 270091856, "lat": 48.5727904, "lon": 13.7841343, "tags": {"ele": "733", "name": "Eidenberger Lusen", "natural": "peak", "summit:cross": "yes"}}, {"type": "node", "id": 270091860, "lat": 48.5731425, "lon": 13.7686832, "tags": {"natural": "peak"}}, {"type": "node", "id": 270091866, "lat": 48.5852943, "lon": 13.7978656, "tags": {"natural": "peak"}}, {"type": "node", "id": 270091869, "lat": 48.5583747, "lon": 13.7594134, "tags": {"ele": "603", "natural": "peak"}}, {"type": "node", "id": 270091875, "lat": 48.60153, "lon": 13.7788112, "tags": {"ele": "767", "name": "Ponzaun", "natural": "peak"}}, {"type": "node", "id": 270091877, "lat": 48.6257036, "lon": 13.8150317, "tags": {"natural": "peak"}}, {"type": "node", "id": 270091902, "lat": 48.6639265, "lon": 13.8260181, "tags": {"ele": "802", "name": "Hirzenberg", "natural": "peak"}}, {"type": "node", "id": 270091904, "lat": 48.6495254, "lon": 13.8208682, "tags": {"ele": "761", "natural": "peak"}}, {"type": "node", "id": 270091912, "lat": 48.7066519, "lon": 13.828593, "tags": {"ele": "656", "natural": "peak"}}, {"type": "node", "id": 270091913, "lat": 48.6893168, "lon": 13.8196666, "tags": {"ele": "712", "natural": "peak"}}, {"type": "node", "id": 270091914, "lat": 48.6882969, "lon": 13.7983806, "tags": {"natural": "peak"}}, {"type": "node", "id": 270091916, "lat": 48.7081245, "lon": 13.7903125, "tags": {"ele": "727", "name": "H\u00f6pfelberg", "natural": "peak"}}, {"type": "node", "id": 270091929, "lat": 48.6978151, "lon": 13.7913425, "tags": {"natural": "peak"}}, {"type": "node", "id": 270091935, "lat": 48.7017805, "lon": 13.772803, "tags": {"natural": "peak"}}, {"type": "node", "id": 270091936, "lat": 48.7160534, "lon": 13.7662799, "tags": {"natural": "peak"}}, {"type": "node", "id": 270091940, "lat": 48.7746867, "lon": 13.813786, "tags": {"ele": "1341", "name": "Vysok\u00fd h\u0159eben", "name:cs": "Vysok\u00fd h\u0159eben", "name:de": "Hochkamm", "natural": "peak"}}, {"type": "node", "id": 270092058, "lat": 48.8076374, "lon": 13.8037216, "tags": {"ele": "1020.9", "name": "\u0160pi\u010d\u00e1k", "name:cs": "\u0160pi\u010d\u00e1k", "name:de": "Spitzberg", "natural": "peak", "source": "tisicovky.cz", "triangulation_point": "yes"}}, {"type": "node", "id": 305665620, "lat": 48.8185711, "lon": 13.6782443, "tags": {"ele": "1166", "name": "Haidel", "natural": "peak", "wikidata": "Q884249", "wikipedia": "de:Haidel"}}, {"type": "node", "id": 417100704, "lat": 48.889185, "lon": 13.6431786, "tags": {"ele": "1139", "name": "Almberg", "natural": "peak", "wikidata": "Q929456", "wikimedia_commons": "Category:Almberg (Bayerischer Wald)", "wikipedia": "de:Almberg (Bayerischer Wald)"}}, {"type": "node", "id": 428608605, "lat": 48.6474966, "lon": 13.6858196, "tags": {"ele": "862", "name": "Ruhmannsberg", "natural": "peak", "wikidata": "Q11825954", "wikipedia": "de:Ruhmannsberg"}}, {"type": "node", "id": 428608606, "lat": 48.6510959, "lon": 13.6513777, "tags": {"ele": "793", "name": "Staffelberg", "natural": "peak", "wikidata": "Q267491", "wikipedia": "de:Staffelberg (Niederbayern)"}}, {"type": "node", "id": 576733430, "lat": 48.8880556, "lon": 13.6866667, "tags": {"ele": "1002", "name": "Pomezn\u00fd", "name:cs": "Pomezn\u00fd", "name:de": "Scheiblingsberg", "natural": "peak", "source": "tisicovky.cz"}}, {"type": "node", "id": 577323245, "lat": 48.9063889, "lon": 13.6825, "tags": {"ele": "1072", "name": "Skalnat\u00fd h\u0159bet", "name:cs": "Skalnat\u00fd h\u0159bet", "name:de": "Gaisberg", "natural": "peak", "source": "tisicovky.cz"}}, {"type": "node", "id": 605418981, "lat": 48.8884396, "lon": 13.5400865, "tags": {"ele": "1002", "name": "Grosse Kanzel", "natural": "peak"}}, {"type": "node", "id": 605457854, "lat": 48.8938149, "lon": 13.5116318, "tags": {"name": "Ochsenriegel", "natural": "peak"}}, {"type": "node", "id": 605503339, "lat": 48.8873002, "lon": 13.5310852, "tags": {"ele": "1011", "name": "Kleine Kanzel", "natural": "peak"}}, {"type": "node", "id": 814886691, "lat": 48.7353965, "lon": 13.5794471, "tags": {"ele": "628", "name": "Sicklinger Berg", "natural": "peak"}}, {"type": "node", "id": 814886693, "lat": 48.6850001, "lon": 13.6580499, "tags": {"ele": "945", "name": "Oberfrauenwald", "natural": "peak", "wikidata": "Q2009651", "wikimedia_commons": "File:Aussichtsturm Oberfrauenwald.JPG", "wikipedia": "de:Oberfrauenwald (Bayerischer Wald)"}}, {"type": "node", "id": 814886698, "lat": 48.785, "lon": 13.78859, "tags": {"ele": "1235", "name": "Habergrasberg", "natural": "peak"}}, {"type": "node", "id": 814886704, "lat": 48.74917, "lon": 13.65305, "tags": {"ele": "755", "name": "Neufanger Berg", "natural": "peak"}}, {"type": "node", "id": 814886713, "lat": 48.70479, "lon": 13.60592, "tags": {"ele": "793", "name": "Sau\u00dfberg", "natural": "peak"}}, {"type": "node", "id": 911292781, "lat": 48.7567957, "lon": 13.8344408, "tags": {"ele": "1108", "name": "Teufelssch\u00fcssel", "natural": "peak"}}, {"type": "node", "id": 972202151, "lat": 48.6545958, "lon": 13.7963569, "tags": {"ele": "930", "name": "Friedrichsberg", "natural": "peak", "wikidata": "Q1464187", "wikipedia": "de:Friedrichsberg (Niederbayern)"}}, {"type": "node", "id": 1329432528, "lat": 48.6619491, "lon": 13.614023, "tags": {"ele": "745", "name": "Tiessenberg", "natural": "peak", "wikidata": "Q31517373"}}, {"type": "node", "id": 1329432597, "lat": 48.6599959, "lon": 13.6082887, "tags": {"ele": "725", "natural": "peak"}}, {"type": "node", "id": 1512928601, "lat": 48.8139896, "lon": 13.2648902, "tags": {"ele": "906", "name": "Gei\u00dflstein", "natural": "peak", "wikidata": "Q1499139", "wikipedia": "de:Gei\u00dflstein"}}, {"type": "node", "id": 1584111668, "lat": 48.7709039, "lon": 13.426255, "tags": {"ele": "572", "name": "Bubikberg", "natural": "peak"}}, {"type": "node", "id": 1584111670, "lat": 48.7896681, "lon": 13.4345317, "tags": {"ele": "638", "name": "Lindberg", "natural": "peak", "wikidata": "Q31566075"}}, {"type": "node", "id": 1585617175, "lat": 48.872233, "lon": 13.3543789, "tags": {"name": "Redelberg", "natural": "peak"}}, {"type": "node", "id": 1585642759, "lat": 48.8465001, "lon": 13.3274501, "tags": {"name": "Scheiben", "natural": "peak"}}, {"type": "node", "id": 1602541842, "lat": 48.8733143, "lon": 13.333505, "tags": {"ele": "703", "name": "Steinbichel", "natural": "peak"}}, {"type": "node", "id": 1602542020, "lat": 48.8710547, "lon": 13.3431158, "tags": {"ele": "686", "name": "Oberer Berg", "natural": "peak"}}, {"type": "node", "id": 1602557838, "lat": 48.8882425, "lon": 13.3794222, "tags": {"ele": "744", "name": "Altenstein", "natural": "peak"}}, {"type": "node", "id": 1602560075, "lat": 48.8939705, "lon": 13.3519564, "tags": {"name": "Kreuzberg", "natural": "peak"}}, {"type": "node", "id": 1631533588, "lat": 48.8620758, "lon": 13.3732777, "tags": {"ele": "752", "name": "Hoher Sachsen", "natural": "peak"}}, {"type": "node", "id": 1637742696, "lat": 48.8725515, "lon": 13.3214406, "tags": {"ele": "738", "name": "T\u00fcrkenberg", "natural": "peak"}}, {"type": "node", "id": 1637808138, "lat": 48.8801521, "lon": 13.3126966, "tags": {"ele": "667", "name": "M\u00fchlberg", "natural": "peak"}}, {"type": "node", "id": 1637827733, "lat": 48.8654477, "lon": 13.2675766, "tags": {"ele": "680", "name": "Steinbichel", "natural": "peak"}}, {"type": "node", "id": 1708860112, "lat": 48.7556495, "lon": 13.3074661, "tags": {"ele": "623", "name": "Ochsenstiegl", "natural": "peak"}}, {"type": "node", "id": 1719410927, "lat": 48.8512742, "lon": 13.2948397, "tags": {"name": "Widderberg", "natural": "peak"}}, {"type": "node", "id": 1719410971, "lat": 48.8563004, "lon": 13.2961057, "tags": {"ele": "630", "name": "H\u00e4userberg", "natural": "peak"}}, {"type": "node", "id": 1720461275, "lat": 48.7997441, "lon": 13.3593991, "tags": {"ele": "582", "name": "Im Riegel", "natural": "peak"}}, {"type": "node", "id": 1720461285, "lat": 48.797836, "lon": 13.3675101, "tags": {"ele": "537.7", "natural": "peak"}}, {"type": "node", "id": 1720464279, "lat": 48.8113468, "lon": 13.3622744, "tags": {"ele": "534", "name": "Bauernberg", "natural": "peak"}}, {"type": "node", "id": 1720487630, "lat": 48.773957, "lon": 13.3780243, "tags": {"ele": "565.5", "name": "Hauzenberg", "natural": "peak"}}, {"type": "node", "id": 1720487650, "lat": 48.7741267, "lon": 13.3820154, "tags": {"name": "Vogelsang", "natural": "peak"}}, {"type": "node", "id": 1720487658, "lat": 48.7879125, "lon": 13.3793761, "tags": {"ele": "537", "name": "Glockenberg", "natural": "peak"}}, {"type": "node", "id": 1737969348, "lat": 48.8446402, "lon": 13.326521, "tags": {"name": "Kadernberg", "natural": "peak"}}, {"type": "node", "id": 1737969615, "lat": 48.8658319, "lon": 13.3372713, "tags": {"ele": "630", "natural": "peak"}}, {"type": "node", "id": 1751528895, "lat": 48.841942, "lon": 13.4354913, "tags": {"ele": "754", "name": "Steinb\u00fchl", "natural": "peak"}}, {"type": "node", "id": 1774677537, "lat": 48.7720221, "lon": 13.8269438, "tags": {"alt_name": "Bayrischer Pl\u00f6ckenstein", "ele": "1364", "name": "Bayerischer Pl\u00f6ckenstein", "name:cs": "Trojmezn\u00e1 hora", "name:de": "Bayerischer Pl\u00f6ckenstein", "natural": "peak", "wikidata": "Q812363", "wikipedia": "de:Bayerischer Pl\u00f6ckenstein"}}, {"type": "node", "id": 1774951385, "lat": 48.8905971, "lon": 13.4395641, "tags": {"name": "Gr\u00fcdelberg", "natural": "peak"}}, {"type": "node", "id": 1777783073, "lat": 48.8905042, "lon": 13.6691268, "tags": {"ele": "921", "name": "Mitterscheibling", "name:de": "Mitterscheibling", "natural": "peak"}}, {"type": "node", "id": 1845701589, "lat": 48.8458696, "lon": 13.6427333, "tags": {"ele": "890", "name": "M\u00fchlberg", "natural": "peak"}}, {"type": "node", "id": 1846783812, "lat": 48.7505129, "lon": 13.7272164, "tags": {"ele": "807", "name": "Spitzenberg", "natural": "peak", "wikidata": "Q31519957"}}, {"type": "node", "id": 1846787256, "lat": 48.7591014, "lon": 13.7212919, "tags": {"ele": "812", "name": "Stubenberg", "natural": "peak"}}, {"type": "node", "id": 1846801307, "lat": 48.7522121, "lon": 13.7477277, "tags": {"ele": "706", "name": "Braunberg", "natural": "peak"}}, {"type": "node", "id": 1857507754, "lat": 48.8292768, "lon": 13.4559508, "tags": {"description": "Im 30-J\u00e4hrigen Krieg sollen sich hier die Priester, Ministranten usw versteckt haben. Daher der Name \"geistlicher Stein\" Viele Klettersportler trainieren hier das frei klettern.", "ele": "671", "name": "Geistlicher Stein", "natural": "peak", "source": "Stoana", "summit:cross": "yes"}}, {"type": "node", "id": 1864939054, "lat": 48.797657, "lon": 13.5281372, "tags": {"name": "Baderstein", "natural": "peak"}}, {"type": "node", "id": 1880064913, "lat": 48.7367261, "lon": 13.4603941, "tags": {"name": "Atzldorfer Berg", "natural": "peak"}}, {"type": "node", "id": 2268278345, "lat": 48.8515811, "lon": 13.4582633, "tags": {"ele": "875", "name": "Steinberg", "natural": "peak", "summit:cross": "no", "wikidata": "Q31519219"}}, {"type": "node", "id": 2271027667, "lat": 48.9078643, "lon": 13.6774204, "tags": {"ele": "1056", "name": "Homole", "name:cs": "Homole", "natural": "peak"}}, {"type": "node", "id": 2389014566, "lat": 48.6822222, "lon": 13.5875, "tags": {"ele": "830", "name": "Steinberg", "natural": "peak", "source": "Wikipedia", "wikidata": "Q288474", "wikipedia": "de:Steinberg (Niederbayern)"}}, {"type": "node", "id": 2481838675, "lat": 48.7878266, "lon": 13.348767, "tags": {"ele": "539", "name": "Goldh\u00fcgel", "natural": "peak"}}, {"type": "node", "id": 2493825649, "lat": 48.7854789, "lon": 13.3660449, "tags": {"ele": "513", "name": "Pfennigh\u00fcgel", "natural": "peak"}}, {"type": "node", "id": 2549215740, "lat": 48.76141, "lon": 13.3359566, "tags": {"ele": "520", "name": "Diebstein", "natural": "peak"}}, {"type": "node", "id": 2580587491, "lat": 48.7406726, "lon": 13.7053418, "tags": {"name": "Zielberg", "natural": "peak", "source": "survey"}}, {"type": "node", "id": 2640761492, "lat": 48.8281982, "lon": 13.4577657, "tags": {"name": "Kleiner Geistlicher Stein", "natural": "peak"}}, {"type": "node", "id": 2686304899, "lat": 48.656921, "lon": 13.7444404, "tags": {"ele": "899", "name": "Gro\u00dfer Rathberg", "natural": "peak", "wikidata": "Q31543798"}}, {"type": "node", "id": 2996244038, "lat": 48.8940025, "lon": 13.3934814, "tags": {"alt_name": "Bistand", "ele": "865", "name": "Bienstand", "natural": "peak", "wikidata": "Q857693"}}, {"type": "node", "id": 2996252971, "lat": 48.7958348, "lon": 13.800833, "tags": {"ele": "1042", "name": "Rollmannsberg", "natural": "peak", "wikidata": "Q2164241"}}, {"type": "node", "id": 2996255522, "lat": 48.895165, "lon": 13.6269428, "tags": {"ele": "1100", "name": "Alzenberg", "natural": "peak", "wikidata": "Q450685"}}, {"type": "node", "id": 2996255523, "lat": 48.8703261, "lon": 13.657291, "tags": {"ele": "1010", "name": "Grandelberg", "natural": "peak", "wikidata": "Q1542982"}}, {"type": "node", "id": 2996255524, "lat": 48.8563241, "lon": 13.6549035, "tags": {"ele": "1060", "name": "Schwarzkopf", "natural": "peak", "wikidata": "Q1568605"}}, {"type": "node", "id": 2996257320, "lat": 48.8380795, "lon": 13.7399609, "tags": {"ele": "1028", "name": "Lichtenberg", "natural": "peak", "wikidata": "Q1823346"}}, {"type": "node", "id": 2996257321, "lat": 48.8435733, "lon": 13.6992756, "tags": {"ele": "1146", "name": "Sulzberg", "natural": "peak", "wikidata": "Q2365081"}}, {"type": "node", "id": 3239839912, "lat": 48.7699484, "lon": 13.7394357, "tags": {"ele": "759", "name": "Fuchsenstein", "natural": "peak"}}, {"type": "node", "id": 3370296585, "lat": 48.8645965, "lon": 13.4007879, "tags": {"name": "Schwaimberg", "natural": "peak", "note": "ungef\u00e4hre Lage, bitte um Korrektur"}}, {"type": "node", "id": 3420287343, "lat": 48.8810229, "lon": 13.6709816, "tags": {"ele": "997", "name:cs": "P\u0159edn\u00ed kopec", "name:de": "Vorderscheibling", "natural": "peak"}}, {"type": "node", "id": 3420287344, "lat": 48.8892309, "lon": 13.6944712, "tags": {"ele": "998", "name": "Silnick\u00e1 hora", "name:cs": "Silnick\u00e1 hora", "natural": "peak"}}, {"type": "node", "id": 3420287345, "lat": 48.9060528, "lon": 13.6944336, "tags": {"ele": "1026", "name": "L\u00edskov\u00fd vrch", "natural": "peak"}}, {"type": "node", "id": 3420287346, "lat": 48.9081401, "lon": 13.6495549, "tags": {"ele": "963", "name": "Pomezn\u00ed str\u00e1\u0148", "natural": "peak"}}, {"type": "node", "id": 3508869811, "lat": 48.5225288, "lon": 13.7216404, "tags": {"ele": "586", "name": "Ebenstein", "natural": "peak"}}, {"type": "node", "id": 3930587904, "lat": 48.7458001, "lon": 13.4892374, "tags": {"ele": "583", "name": "Hoher Stein", "natural": "peak"}}, {"type": "node", "id": 4028630770, "lat": 48.8500292, "lon": 13.3860138, "tags": {"natural": "peak"}}, {"type": "node", "id": 4038346417, "lat": 48.7603456, "lon": 13.3370654, "tags": {"ele": "580", "natural": "peak"}}, {"type": "node", "id": 4241969613, "lat": 48.8808079, "lon": 13.4231681, "tags": {"ele": "715", "natural": "peak"}}, {"type": "node", "id": 4466421577, "lat": 48.7493244, "lon": 13.3617601, "tags": {"ele": "608", "name": "H\u00f6henberg", "natural": "peak"}}, {"type": "node", "id": 4704220815, "lat": 48.8924503, "lon": 13.4293207, "tags": {"ele": "820", "name": "Hoher Stein", "natural": "peak", "note": "nicht \u00f6ffentlich zug\u00e4nglich!"}}, {"type": "node", "id": 4973997354, "lat": 48.7748578, "lon": 13.771184, "tags": {"ele": "929", "name": "Klausgupf", "natural": "peak"}}, {"type": "node", "id": 5114561790, "lat": 48.912214, "lon": 13.6420522, "tags": {"ele": "1018", "name": "Gei\u00dfberg", "name:cs": "Koz\u00ed hora", "natural": "peak", "wikidata": "Q31545810"}}, {"type": "node", "id": 5481093106, "lat": 48.8017055, "lon": 13.4787791, "tags": {"name": "Frauenstein", "natural": "peak"}}, {"type": "node", "id": 5481894882, "lat": 48.8130949, "lon": 13.5207262, "tags": {"ele": "575", "name": "Augustin Kanzel", "natural": "peak"}}, {"type": "node", "id": 7840768981, "lat": 48.6993217, "lon": 13.8025613, "tags": {"ele": "692", "name": "Nanzelberg", "natural": "peak"}}, {"type": "node", "id": 7954388046, "lat": 48.764743, "lon": 13.6948783, "tags": {"name": "Hochstein", "natural": "peak"}}, {"type": "node", "id": 8043758135, "lat": 48.9110958, "lon": 13.5391915, "tags": {"ele": "1129", "natural": "peak"}}, {"type": "node", "id": 8043758136, "lat": 48.9107125, "lon": 13.5395297, "tags": {"ele": "1125", "natural": "peak"}}, {"type": "node", "id": 8590098510, "lat": 48.6152527, "lon": 13.2922924, "tags": {"ele": "402", "name": "Erlenberg", "natural": "peak"}}, {"type": "node", "id": 8590098511, "lat": 48.6280566, "lon": 13.2999515, "tags": {"ele": "462", "name": "Kehlberg", "natural": "peak"}}, {"type": "node", "id": 8590098512, "lat": 48.639361, "lon": 13.3015743, "tags": {"ele": "560", "name": "Ebersberg", "natural": "peak"}}, {"type": "node", "id": 8590098513, "lat": 48.6365607, "lon": 13.2736962, "tags": {"ele": "428", "name": "K\u00fchberg", "natural": "peak"}}, {"type": "node", "id": 8620915790, "lat": 48.623218, "lon": 13.7082724, "tags": {"ele": "855", "name": "K\u00fchberg", "natural": "peak"}}, {"type": "node", "id": 9269928112, "lat": 48.6150311, "lon": 13.3866022, "tags": {"ele": "386", "name": "Kastenberg", "natural": "peak"}}, {"type": "node", "id": 9687638994, "lat": 48.6966004, "lon": 13.8195811, "tags": {"ele": "654", "name": "Dreihiasl", "natural": "peak"}}, {"type": "node", "id": 9796805128, "lat": 48.7276038, "lon": 13.8128584, "tags": {"ele": "692", "name": "Einsiedelberg", "natural": "peak", "wikidata": "Q21875845"}}, {"type": "node", "id": 10540144144, "lat": 48.755216, "lon": 13.7027891, "tags": {"ele": "829", "name": "Zillberg", "natural": "peak"}}, {"type": "node", "id": 10608923057, "lat": 48.5321052, "lon": 13.6551997, "tags": {"ele": "393", "name": "Teufelsstein", "natural": "peak"}}]}